cnn,street_name,side,cardinal_direction,from_address,to_address,number_range
111000,01ST ST,L,,301,331,301-331
129000,02ND ST,L,,1,35,1-35
132000,02ND ST,L,,101,129,101-129
133000,02ND ST,L,,131,163,131-163
134000,02ND ST,L,,165,199,165-199
130000,02ND ST,L,,37,67,37-67
131000,02ND ST,L,,69,99,69-99
207101,03RD ST,R,,0,0,0-0
204101,03RD ST,R,,0,0,0-0
205201,03RD ST,L,,0,0,0-0
216201,03RD ST,L,,0,0,0-0
208101,03RD ST,R,,0,0,0-0
211201,03RD ST,L,,0,0,0-0
191201,03RD ST,L,,0,0,0-0
224101,03RD ST,R,,0,0,0-0
185203,03RD ST,L,,0,0,0-0
212101,03RD ST,R,,0,0,0-0
218201,03RD ST,L,,0,0,0-0
231201,03RD ST,L,,0,0,0-0
200201,03RD ST,L,,0,0,0-0
185207,03RD ST,L,,0,0,0-0
207201,03RD ST,L,,0,0,0-0
185105,03RD ST,R,,0,0,0-0
194101,03RD ST,R,,0,0,0-0
185204,03RD ST,L,,0,0,0-0
225102,03RD ST,R,,0,0,0-0
189201,03RD ST,L,,0,0,0-0
206201,03RD ST,L,,0,0,0-0
185104,03RD ST,R,,0,0,0-0
223101,03RD ST,R,,0,0,0-0
186201,03RD ST,L,,0,0,0-0
212201,03RD ST,L,,0,0,0-0
199201,03RD ST,L,,0,0,0-0
220201,03RD ST,L,,0,0,0-0
218101,03RD ST,R,,0,0,0-0
184101,03RD ST,R,,0,0,0-0
225101,03RD ST,R,,0,0,0-0
213101,03RD ST,R,,0,0,0-0
202101,03RD ST,R,,0,0,0-0
227103,03RD ST,R,,0,0,0-0
221101,03RD ST,R,,0,0,0-0
211101,03RD ST,R,,0,0,0-0
200202,03RD ST,L,,0,0,0-0
229201,03RD ST,L,,0,0,0-0
208201,03RD ST,L,,0,0,0-0
233101,03RD ST,R,,0,0,0-0
205101,03RD ST,R,,0,0,0-0
198201,03RD ST,L,,0,0,0-0
223201,03RD ST,L,,0,0,0-0
189101,03RD ST,R,,0,0,0-0
226201,03RD ST,L,,0,0,0-0
231101,03RD ST,R,,0,0,0-0
203101,03RD ST,R,,0,0,0-0
203201,03RD ST,L,,0,0,0-0
222201,03RD ST,L,,0,0,0-0
224201,03RD ST,L,,0,0,0-0
217201,03RD ST,L,,0,0,0-0
192201,03RD ST,L,,0,0,0-0
226101,03RD ST,R,,0,0,0-0
209201,03RD ST,L,,0,0,0-0
185206,03RD ST,L,,0,0,0-0
227102,03RD ST,R,,0,0,0-0
219101,03RD ST,R,,0,0,0-0
204201,03RD ST,L,,0,0,0-0
185103,03RD ST,R,,0,0,0-0
202201,03RD ST,L,,0,0,0-0
220102,03RD ST,R,,0,0,0-0
199101,03RD ST,R,,0,0,0-0
217101,03RD ST,R,,0,0,0-0
215201,03RD ST,L,,0,0,0-0
190201,03RD ST,L,,0,0,0-0
214101,03RD ST,R,,0,0,0-0
198101,03RD ST,R,,0,0,0-0
228201,03RD ST,L,,0,0,0-0
197101,03RD ST,R,,0,0,0-0
232101,03RD ST,R,,0,0,0-0
227201,03RD ST,L,,0,0,0-0
188201,03RD ST,L,,0,0,0-0
209101,03RD ST,R,,0,0,0-0
232201,03RD ST,L,,0,0,0-0
185102,03RD ST,R,,0,0,0-0
197201,03RD ST,L,,0,0,0-0
194201,03RD ST,L,,0,0,0-0
200101,03RD ST,R,,0,0,0-0
206102,03RD ST,R,,0,0,0-0
213201,03RD ST,L,,0,0,0-0
225201,03RD ST,L,,0,0,0-0
215101,03RD ST,R,,0,0,0-0
185101,03RD ST,R,,0,0,0-0
214201,03RD ST,L,,0,0,0-0
206101,03RD ST,R,,0,0,0-0
230201,03RD ST,L,,0,0,0-0
228101,03RD ST,R,,0,0,0-0
191101,03RD ST,R,,0,0,0-0
185201,03RD ST,L,,0,0,0-0
210101,03RD ST,R,,0,0,0-0
221201,03RD ST,L,,0,0,0-0
230202,03RD ST,L,,0,0,0-0
220101,03RD ST,R,,0,0,0-0
195101,03RD ST,R,,0,0,0-0
185208,03RD ST,L,,0,0,0-0
185202,03RD ST,L,,0,0,0-0
210201,03RD ST,L,,0,0,0-0
216101,03RD ST,R,,0,0,0-0
190101,03RD ST,R,,0,0,0-0
219201,03RD ST,L,,0,0,0-0
222101,03RD ST,R,,0,0,0-0
229101,03RD ST,R,,0,0,0-0
195201,03RD ST,L,,0,0,0-0
230101,03RD ST,R,,0,0,0-0
186101,03RD ST,R,,0,0,0-0
192101,03RD ST,R,,0,0,0-0
184201,03RD ST,L,,nan,nan,nan-nan
19980000,04TH ST,R,,1050,1098,1050-1098
325000,06TH AVE,R,,1501,1599,1501-1599
342000,06TH ST,L,,643,699,643-699
380001,07TH ST,L,,1001,1049,1001-1049
380002,07TH ST,L,,1051,1099,1051-1099
380000,07TH ST,R,,nan,nan,nan-nan
402000,08TH AVE,L,,1900,1938,1900-1938
444101,09TH AVE,R,,0,0,0-0
444202,09TH AVE,L,,0,0,0-0
444201,09TH AVE,L,,0,0,0-0
444102,09TH AVE,R,,0,0,0-0
550101,13TH ST,R,,0,0,0-0
549201,13TH ST,L,,0,0,0-0
548201,13TH ST,L,,0,0,0-0
550201,13TH ST,L,,0,0,0-0
551102,13TH ST,R,,0,0,0-0
551101,13TH ST,R,,0,0,0-0
551201,13TH ST,L,,0,0,0-0
549203,13TH ST,L,,0,0,0-0
549202,13TH ST,L,,0,0,0-0
549102,13TH ST,R,,0,0,0-0
548101,13TH ST,R,,0,0,0-0
549101,13TH ST,R,,0,0,0-0
568101,14TH AVE,R,,0,0,0-0
569202,14TH AVE,L,,0,0,0-0
563202,14TH AVE,L,,0,0,0-0
563102,14TH AVE,R,,0,0,0-0
569203,14TH AVE,L,,0,0,0-0
568201,14TH AVE,L,,0,0,0-0
563201,14TH AVE,L,,0,0,0-0
569101,14TH AVE,R,,0,0,0-0
569201,14TH AVE,L,,0,0,0-0
563101,14TH AVE,R,,0,0,0-0
568102,14TH AVE,R,,0,0,0-0
564000,14TH AVE,R,,1729,1749,1729-1749
595000,14TH ST,R,,700,700,700-700
618102,15TH AVE,R,,0,0,0-0
618202,15TH AVE,L,,0,0,0-0
618201,15TH AVE,L,,0,0,0-0
618101,15TH AVE,R,,0,0,0-0
641000,15TH ST,R,,1000,1098,1000-1098
643000,15TH ST,R,,1250,1298,1250-1298
663000,15TH ST,R,,2100,2110,2100-2110
681000,16TH AVE,R,,1515,1599,1515-1599
916101,19TH AVE,R,,0,0,0-0
927202,19TH AVE,L,,0,0,0-0
921101,19TH AVE,R,,0,0,0-0
928102,19TH AVE,R,,0,0,0-0
910101,19TH AVE,R,,0,0,0-0
917101,19TH AVE,R,,0,0,0-0
923201,19TH AVE,L,,0,0,0-0
911201,19TH AVE,L,,0,0,0-0
909101,19TH AVE,R,,0,0,0-0
930201,19TH AVE,L,,0,0,0-0
914201,19TH AVE,L,,0,0,0-0
927102,19TH AVE,R,,0,0,0-0
928202,19TH AVE,L,,0,0,0-0
924103,19TH AVE,R,,0,0,0-0
930101,19TH AVE,R,,0,0,0-0
929201,19TH AVE,L,,0,0,0-0
930102,19TH AVE,R,,0,0,0-0
925201,19TH AVE,L,,0,0,0-0
928101,19TH AVE,R,,0,0,0-0
924102,19TH AVE,R,,0,0,0-0
919201,19TH AVE,L,,0,0,0-0
922101,19TH AVE,R,,0,0,0-0
918201,19TH AVE,L,,0,0,0-0
920201,19TH AVE,L,,0,0,0-0
915101,19TH AVE,R,,0,0,0-0
918101,19TH AVE,R,,0,0,0-0
913101,19TH AVE,R,,0,0,0-0
919101,19TH AVE,R,,0,0,0-0
914101,19TH AVE,R,,0,0,0-0
928103,19TH AVE,R,,0,0,0-0
920101,19TH AVE,R,,0,0,0-0
917201,19TH AVE,L,,0,0,0-0
909201,19TH AVE,L,,0,0,0-0
913201,19TH AVE,L,,0,0,0-0
927201,19TH AVE,L,,0,0,0-0
910201,19TH AVE,L,,0,0,0-0
912201,19TH AVE,L,,0,0,0-0
925101,19TH AVE,R,,0,0,0-0
915201,19TH AVE,L,,0,0,0-0
927101,19TH AVE,R,,0,0,0-0
922201,19TH AVE,L,,0,0,0-0
929101,19TH AVE,R,,0,0,0-0
921201,19TH AVE,L,,0,0,0-0
924201,19TH AVE,L,,0,0,0-0
923101,19TH AVE,R,,0,0,0-0
930202,19TH AVE,L,,0,0,0-0
928201,19TH AVE,L,,0,0,0-0
916201,19TH AVE,L,,0,0,0-0
911101,19TH AVE,R,,0,0,0-0
926201,19TH AVE,L,,0,0,0-0
912101,19TH AVE,R,,0,0,0-0
961000,19TH ST,R,,2700,2798,2700-2798
1173000,22ND ST,L,,2201,2225,2201-2225
1240000,23RD ST,R,,1600,1698,1600-1698
1244000,23RD ST,R,,1904,1998,1904-1998
1369000,25TH AVE,R,,1,21,1-21
1464000,25TH AVE NORTH,R,,2,16,2-16
1465000,25TH AVE NORTH,L,,7,19,7-19
1569201,27TH ST,L,,0,0,0-0
1569101,27TH ST,R,,0,0,0-0
2014000,46TH AVE,L,,400,498,400-498
2036000,47TH AVE,R,,401,499,401-499
2078000,48TH AVE,L,,2400,2498,2400-2498
2125000,ALABAMA ST,L,,1701,1713,1701-1713
2128000,ALABAMA ST,R,,1800,1898,1800-1898
2141000,ALANA WAY,R,,2,98,2-98
2184101,ALEMANY BLVD,R,,0,0,0-0
2177101,ALEMANY BLVD,R,,0,0,0-0
2157203,ALEMANY BLVD,L,,0,0,0-0
2175202,ALEMANY BLVD,L,,0,0,0-0
2169101,ALEMANY BLVD,R,,0,0,0-0
2181102,ALEMANY BLVD,R,,0,0,0-0
2183101,ALEMANY BLVD,R,,0,0,0-0
2159201,ALEMANY BLVD,L,,0,0,0-0
2180101,ALEMANY BLVD,R,,0,0,0-0
2176102,ALEMANY BLVD,R,,0,0,0-0
2182101,ALEMANY BLVD,R,,0,0,0-0
2172201,ALEMANY BLVD,L,,0,0,0-0
2157201,ALEMANY BLVD,L,,0,0,0-0
2160201,ALEMANY BLVD,L,,0,0,0-0
2170201,ALEMANY BLVD,L,,0,0,0-0
2175101,ALEMANY BLVD,R,,0,0,0-0
2177202,ALEMANY BLVD,L,,0,0,0-0
2181201,ALEMANY BLVD,L,,0,0,0-0
2160101,ALEMANY BLVD,R,,0,0,0-0
2167201,ALEMANY BLVD,L,,0,0,0-0
2161101,ALEMANY BLVD,R,,0,0,0-0
2171201,ALEMANY BLVD,L,,0,0,0-0
2178101,ALEMANY BLVD,R,,0,0,0-0
2157202,ALEMANY BLVD,L,,0,0,0-0
2165102,ALEMANY BLVD,R,,0,0,0-0
2182201,ALEMANY BLVD,L,,0,0,0-0
2165101,ALEMANY BLVD,R,,0,0,0-0
2170103,ALEMANY BLVD,R,,0,0,0-0
2168101,ALEMANY BLVD,R,,0,0,0-0
2170202,ALEMANY BLVD,L,,0,0,0-0
2184201,ALEMANY BLVD,L,,0,0,0-0
2162201,ALEMANY BLVD,L,,0,0,0-0
2170102,ALEMANY BLVD,R,,0,0,0-0
2177201,ALEMANY BLVD,L,,0,0,0-0
2164102,ALEMANY BLVD,R,,0,0,0-0
2173201,ALEMANY BLVD,L,,0,0,0-0
2174201,ALEMANY BLVD,L,,0,0,0-0
2168202,ALEMANY BLVD,L,,0,0,0-0
2174101,ALEMANY BLVD,R,,0,0,0-0
2183102,ALEMANY BLVD,R,,0,0,0-0
2163101,ALEMANY BLVD,R,,0,0,0-0
2178201,ALEMANY BLVD,L,,0,0,0-0
2184202,ALEMANY BLVD,L,,0,0,0-0
2167101,ALEMANY BLVD,R,,0,0,0-0
2175201,ALEMANY BLVD,L,,0,0,0-0
2159101,ALEMANY BLVD,R,,0,0,0-0
2173101,ALEMANY BLVD,R,,0,0,0-0
2163201,ALEMANY BLVD,L,,0,0,0-0
2168201,ALEMANY BLVD,L,,0,0,0-0
2176201,ALEMANY BLVD,L,,0,0,0-0
2181101,ALEMANY BLVD,R,,0,0,0-0
2165201,ALEMANY BLVD,L,,0,0,0-0
2161201,ALEMANY BLVD,L,,0,0,0-0
2165103,ALEMANY BLVD,R,,0,0,0-0
2164201,ALEMANY BLVD,L,,0,0,0-0
2185102,ALEMANY BLVD,R,,0,0,0-0
2171101,ALEMANY BLVD,R,,0,0,0-0
2177102,ALEMANY BLVD,R,,0,0,0-0
2164101,ALEMANY BLVD,R,,0,0,0-0
2169201,ALEMANY BLVD,L,,0,0,0-0
2176101,ALEMANY BLVD,R,,0,0,0-0
2179101,ALEMANY BLVD,R,,0,0,0-0
2167102,ALEMANY BLVD,R,,0,0,0-0
2159102,ALEMANY BLVD,R,,0,0,0-0
2181202,ALEMANY BLVD,L,,0,0,0-0
2183201,ALEMANY BLVD,L,,0,0,0-0
2162101,ALEMANY BLVD,R,,0,0,0-0
2166201,ALEMANY BLVD,R,,1700,1798,1700-1798
2166101,ALEMANY BLVD,L,,1701,1799,1701-1799
2180201,ALEMANY BLVD,L,,nan,nan,nan-nan
2209000,ALOHA AVE,L,,101,199,101-199
2381101,ARBALLO DR,R,,0,0,0-0
2381201,ARBALLO DR,L,,0,0,0-0
5587000,ARELIOUS WALKER DR,L,,2501,2699,2501-2699
5588000,ARELIOUS WALKER DR,L,,2701,2799,2701-2799
5589000,ARELIOUS WALKER DR,L,,2801,2999,2801-2999
2547000,AUGUSTA ST,R,,2,10,2-10
14097000,AVENUE B,L,,701,749,701-749
14098000,AVENUE B,L,,751,799,751-799
14099000,AVENUE B,L,,801,899,801-899
14100000,AVENUE B,L,,901,999,901-999
2800202,BAY SHORE BLVD,L,,0,0,0-0
2800102,BAY SHORE BLVD,R,,0,0,0-0
2801201,BAY SHORE BLVD,L,,0,0,0-0
2802201,BAY SHORE BLVD,L,,0,0,0-0
2827201,BAY SHORE BLVD,L,,0,0,0-0
2801102,BAY SHORE BLVD,R,,0,0,0-0
2801203,BAY SHORE BLVD,L,,0,0,0-0
2801103,BAY SHORE BLVD,R,,0,0,0-0
2799201,BAY SHORE BLVD,L,,0,0,0-0
2801101,BAY SHORE BLVD,R,,0,0,0-0
2801202,BAY SHORE BLVD,L,,0,0,0-0
2800201,BAY SHORE BLVD,L,,0,0,0-0
2802101,BAY SHORE BLVD,R,,0,0,0-0
2827101,BAY SHORE BLVD,R,,0,0,0-0
2800101,BAY SHORE BLVD,R,,0,0,0-0
2798000,BAY SHORE BLVD,L,,0,0,0-0
2799103,BAY SHORE BLVD,L,,101,149,101-149
2816000,BAY SHORE BLVD,L,,1701,1723,1701-1723
2817000,BAY SHORE BLVD,L,,1725,1773,1725-1773
2818000,BAY SHORE BLVD,L,,1775,1799,1775-1799
2778000,BAY ST,L,,601,609,601-609
2869000,BEATRICE LN,L,,2,18,2-18
2885000,BELGRAVE AVE,L,,1,21,1-21
2886000,BELGRAVE AVE,L,,23,63,23-63
2906000,BELLEVUE AVE,L,,1,99,1-99
2925000,BENTON AVE,L,,0,0,0-0
2927000,BENTON AVE,L,,101,199,101-199
2928000,BENTON AVE,L,,201,277,201-277
2933000,BENTON AVE,L,,601,699,601-699
15046000,BERRY EXTENSION ST,L,,0,0,0-0
2956005,BERRY ST,R,,468,498,468-498
3025202,BOSWORTH ST,L,,0,0,0-0
3029201,BOSWORTH ST,L,,0,0,0-0
3026201,BOSWORTH ST,L,,0,0,0-0
3029101,BOSWORTH ST,R,,0,0,0-0
3025101,BOSWORTH ST,R,,0,0,0-0
3030102,BOSWORTH ST,R,,0,0,0-0
3027201,BOSWORTH ST,L,,0,0,0-0
3030201,BOSWORTH ST,L,,0,0,0-0
3027101,BOSWORTH ST,R,,0,0,0-0
3030101,BOSWORTH ST,R,,0,0,0-0
3026101,BOSWORTH ST,R,,0,0,0-0
3028201,BOSWORTH ST,L,,0,0,0-0
3028101,BOSWORTH ST,R,,0,0,0-0
3031201,BOSWORTH ST,L,,0,0,0-0
3031101,BOSWORTH ST,R,,0,0,0-0
20004000,BURNETT AVE NORTH,R,,1,11,1-11
3419000,BUSH ST,L,,1,99,1-99
3621000,CAMBRIDGE ST,L,,201,211,201-211
3652101,CANYON DR,R,,0,0,0-0
3692101,CARGO WAY,R,,0,0,0-0
3693203,CARGO WAY,L,,0,0,0-0
3693202,CARGO WAY,L,,0,0,0-0
3693101,CARGO WAY,R,,0,0,0-0
3692201,CARGO WAY,L,,0,0,0-0
3704000,CARNELIAN WAY,L,,1,169,1-169
19792000,CARNELIAN WAY,L,,171,199,171-199
3715201,CAROLINA ST,R,,1100,1124,1100-1124
3716000,CAROLINA ST,R,,1126,1130,1126-1130
3733000,CARROLL AVE,R,,1100,1230,1100-1230
3762202,CASHMERE ST,L,,0,0,0-0
3761201,CASHMERE ST,L,,0,0,0-0
3760101,CASHMERE ST,R,,0,0,0-0
3762201,CASHMERE ST,L,,0,0,0-0
3760201,CASHMERE ST,L,,0,0,0-0
3781201,CASTRO ST,L,,0,0,0-0
3782101,CASTRO ST,R,,0,0,0-0
3781101,CASTRO ST,R,,0,0,0-0
3782201,CASTRO ST,L,,0,0,0-0
2479201,CESAR CHAVEZ ST,R,,2560,2598,2560-2598
2479202,CESAR CHAVEZ ST,R,,2600,2698,2600-2698
19991201,CHANNEL ST,L,,0,0,0-0
19991101,CHANNEL ST,R,,0,0,0-0
3899000,CHARLES J BRENHAM PL,R,,2,98,2-98
4040000,CIELITO DR,R,,2,98,2-98
4144000,CLEARFIELD DR,L,,2,4,2-4
4265201,COLLEGE AVE,L,,0,0,0-0
4267101,COLLEGE AVE,R,,0,0,0-0
4267201,COLLEGE AVE,L,,0,0,0-0
4266101,COLLEGE AVE,R,,0,0,0-0
4264201,COLLEGE AVE,L,,0,0,0-0
4266201,COLLEGE AVE,L,,0,0,0-0
4265101,COLLEGE AVE,R,,0,0,0-0
4264101,COLLEGE AVE,R,,0,0,0-0
4371000,CORAL RD,R,,2,98,2-98
13798000,CORONA ST,L,,221,299,221-299
4448000,COSO AVE,R,,0,0,0-0
4450000,COSO AVE,L,,0,0,0-0
4468000,COUNTRY CLUB DR,L,,200,298,200-298
4469000,COUNTRY CLUB DR,L,,300,382,300-382
4470000,COUNTRY CLUB DR,L,,384,398,384-398
4471000,COUNTRY CLUB DR,L,,400,460,400-460
4472000,COUNTRY CLUB DR,L,,462,498,462-498
4477000,CRAGMONT AVE,L,,100,198,100-198
4502000,CRESCENT AVE,L,,nan,nan,nan-nan
4504201,CRESPI DR,L,,0,0,0-0
4504101,CRESPI DR,R,,0,0,0-0
4555000,CURTIS ST,R,,nan,nan,nan-nan
4583000,DANVERS ST,R,,200,298,200-298
4639000,DE HARO ST,L,,1301,1319,1301-1319
4640102,DE HARO ST,L,,1321,1355,1321-1355
4640103,DE HARO ST,L,,1357,1399,1357-1399
4641000,DE HARO ST,L,,1401,1411,1401-1411
4642002,DE HARO ST,L,,1467,1499,1467-1499
4663000,DEARBORN ST,L,,1,65,1-65
4664000,DEARBORN ST,L,,67,99,67-99
4667101,DEDMAN CT,R,,0,0,0-0
3276099,DELANCEY ST,R,,0,0,0-0
3276098,DELANCEY ST,R,,0,0,0-0
4712000,DEMING ST,R,,2,28,2-28
4782201,DIAMOND HEIGHTS BLVD,L,,0,0,0-0
4778201,DIAMOND HEIGHTS BLVD,L,,0,0,0-0
4775101,DIAMOND HEIGHTS BLVD,R,,0,0,0-0
4779201,DIAMOND HEIGHTS BLVD,L,,0,0,0-0
4774101,DIAMOND HEIGHTS BLVD,R,,0,0,0-0
4780101,DIAMOND HEIGHTS BLVD,R,,0,0,0-0
4777101,DIAMOND HEIGHTS BLVD,R,,0,0,0-0
4779101,DIAMOND HEIGHTS BLVD,R,,0,0,0-0
4775201,DIAMOND HEIGHTS BLVD,L,,0,0,0-0
4784101,DIAMOND HEIGHTS BLVD,R,,0,0,0-0
4784201,DIAMOND HEIGHTS BLVD,L,,0,0,0-0
4783201,DIAMOND HEIGHTS BLVD,L,,0,0,0-0
4776102,DIAMOND HEIGHTS BLVD,R,,0,0,0-0
4777201,DIAMOND HEIGHTS BLVD,L,,0,0,0-0
4776101,DIAMOND HEIGHTS BLVD,R,,0,0,0-0
4780201,DIAMOND HEIGHTS BLVD,L,,0,0,0-0
4778101,DIAMOND HEIGHTS BLVD,R,,0,0,0-0
4781101,DIAMOND HEIGHTS BLVD,R,,0,0,0-0
4776201,DIAMOND HEIGHTS BLVD,L,,0,0,0-0
4783101,DIAMOND HEIGHTS BLVD,R,,0,0,0-0
4782101,DIAMOND HEIGHTS BLVD,R,,0,0,0-0
4774201,DIAMOND HEIGHTS BLVD,L,,0,0,0-0
4781201,DIAMOND HEIGHTS BLVD,L,,0,0,0-0
4758201,DIAMOND ST,L,,0,0,0-0
4758101,DIAMOND ST,R,,0,0,0-0
4789000,DICHIERA CT,R,,2,98,2-98
4794000,DIGBY ST,L,,1,69,1-69
4803101,DIVISADERO ST,R,,0,0,0-0
4813101,DIVISADERO ST,R,,0,0,0-0
4800101,DIVISADERO ST,R,,0,0,0-0
4803201,DIVISADERO ST,L,,0,0,0-0
4806101,DIVISADERO ST,R,,0,0,0-0
4816201,DIVISADERO ST,L,,0,0,0-0
4812201,DIVISADERO ST,L,,0,0,0-0
4802101,DIVISADERO ST,R,,0,0,0-0
4810101,DIVISADERO ST,R,,0,0,0-0
4800201,DIVISADERO ST,L,,0,0,0-0
4801201,DIVISADERO ST,L,,0,0,0-0
4807201,DIVISADERO ST,L,,0,0,0-0
4804201,DIVISADERO ST,L,,0,0,0-0
4815201,DIVISADERO ST,L,,0,0,0-0
4801101,DIVISADERO ST,R,,0,0,0-0
4815101,DIVISADERO ST,R,,0,0,0-0
4814201,DIVISADERO ST,L,,0,0,0-0
4811101,DIVISADERO ST,R,,0,0,0-0
4802201,DIVISADERO ST,L,,0,0,0-0
4804101,DIVISADERO ST,R,,0,0,0-0
4798101,DIVISADERO ST,R,,0,0,0-0
4816101,DIVISADERO ST,R,,0,0,0-0
4808101,DIVISADERO ST,R,,0,0,0-0
4799101,DIVISADERO ST,R,,0,0,0-0
4809201,DIVISADERO ST,L,,0,0,0-0
4805201,DIVISADERO ST,L,,0,0,0-0
4814101,DIVISADERO ST,R,,0,0,0-0
4817101,DIVISADERO ST,R,,0,0,0-0
4812102,DIVISADERO ST,R,,0,0,0-0
4811201,DIVISADERO ST,L,,0,0,0-0
4813201,DIVISADERO ST,L,,0,0,0-0
4818201,DIVISADERO ST,L,,0,0,0-0
4799201,DIVISADERO ST,L,,0,0,0-0
4808201,DIVISADERO ST,L,,0,0,0-0
4817201,DIVISADERO ST,L,,0,0,0-0
4798201,DIVISADERO ST,L,,0,0,0-0
4812101,DIVISADERO ST,R,,0,0,0-0
4805101,DIVISADERO ST,R,,0,0,0-0
4807101,DIVISADERO ST,R,,0,0,0-0
4818101,DIVISADERO ST,R,,0,0,0-0
4809101,DIVISADERO ST,R,,0,0,0-0
4806201,DIVISADERO ST,L,,0,0,0-0
4810201,DIVISADERO ST,L,,0,0,0-0
4846201,DIVISION ST,L,,0,0,0-0
4846101,DIVISION ST,R,,0,0,0-0
4840000,DIVISION ST,R,,100,120,100-120
4841000,DIVISION ST,R,,122,124,122-124
4842000,DIVISION ST,R,,126,194,126-194
4843000,DIVISION ST,R,,196,198,196-198
4836000,DIVISION ST,R,,2,20,2-20
4844000,DIVISION ST,R,,200,216,200-216
4845000,DIVISION ST,R,,218,298,218-298
4837000,DIVISION ST,R,,22,40,22-40
4838000,DIVISION ST,R,,42,48,42-48
4839000,DIVISION ST,R,,50,98,50-98
4870101,DOLORES ST,R,,0,0,0-0
4880101,DOLORES ST,R,,0,0,0-0
4880201,DOLORES ST,L,,0,0,0-0
4888101,DOLORES ST,R,,0,0,0-0
4878101,DOLORES ST,R,,0,0,0-0
4876201,DOLORES ST,L,,0,0,0-0
4879201,DOLORES ST,L,,0,0,0-0
4879101,DOLORES ST,R,,0,0,0-0
4881201,DOLORES ST,L,,0,0,0-0
4875201,DOLORES ST,L,,0,0,0-0
4889201,DOLORES ST,L,,0,0,0-0
4866101,DOLORES ST,R,,0,0,0-0
4874101,DOLORES ST,R,,0,0,0-0
4890101,DOLORES ST,R,,0,0,0-0
4886101,DOLORES ST,R,,0,0,0-0
4877201,DOLORES ST,L,,0,0,0-0
4884201,DOLORES ST,L,,0,0,0-0
4883201,DOLORES ST,L,,0,0,0-0
4877101,DOLORES ST,R,,0,0,0-0
4890201,DOLORES ST,L,,0,0,0-0
4871101,DOLORES ST,R,,0,0,0-0
4889101,DOLORES ST,R,,0,0,0-0
4886201,DOLORES ST,L,,0,0,0-0
4862101,DOLORES ST,R,,0,0,0-0
4861102,DOLORES ST,R,,0,0,0-0
4883101,DOLORES ST,R,,0,0,0-0
4888201,DOLORES ST,L,,0,0,0-0
4872101,DOLORES ST,R,,0,0,0-0
4861101,DOLORES ST,R,,0,0,0-0
4873101,DOLORES ST,R,,0,0,0-0
4887101,DOLORES ST,R,,0,0,0-0
4876101,DOLORES ST,R,,0,0,0-0
4882101,DOLORES ST,R,,0,0,0-0
4882201,DOLORES ST,L,,0,0,0-0
4885201,DOLORES ST,L,,0,0,0-0
4884101,DOLORES ST,R,,0,0,0-0
4868102,DOLORES ST,R,,0,0,0-0
4878201,DOLORES ST,L,,0,0,0-0
4887201,DOLORES ST,L,,0,0,0-0
4881101,DOLORES ST,R,,0,0,0-0
4868101,DOLORES ST,R,,0,0,0-0
4875101,DOLORES ST,R,,0,0,0-0
4885101,DOLORES ST,R,,0,0,0-0
4863101,DOLORES ST,R,,0,0,0-0
4869101,DOLORES ST,R,,0,0,0-0
4864101,DOLORES ST,R,,0,0,0-0
4949000,DOUGLASS ST,R,,400,498,400-498
4969000,DRUMM ST,R,,2,6,2-6
4978201,DUBOCE AVE,L,,0,0,0-0
4978101,DUBOCE AVE,R,,0,0,0-0
4978102,DUBOCE AVE,R,,0,0,0-0
4996101,DUKES CT,R,,0,0,0-0
4996201,DUKES CT,L,,0,0,0-0
5008000,DUNCAN ST,L,,701,799,701-799
5030000,EAGLE ST,L,,201,299,201-299
5078000,EDGAR AVE,R,,2,26,2-26
5117000,EGBERT AVE,L,,1701,1797,1701-1797
5119000,EGBERT AVE,R,,1900,1998,1900-1998
5125201,EL CAMINO DEL MAR,L,,0,0,0-0
5125102,EL CAMINO DEL MAR,R,,0,0,0-0
5125101,EL CAMINO DEL MAR,R,,0,0,0-0
19092000,EL CAMINO DEL MAR,R,,2600,2698,2600-2698
5214101,EL MIRASOL PL,R,,0,0,0-0
5166000,ELLIOT ST,L,,101,199,101-199
5187000,ELLIS ST,R,,1550,1598,1550-1598
5238000,ENTRADA CT,L,,71,121,71-121
5259000,ESQUINA DR,L,,1,99,1-99
5265000,ESTERO AVE,R,,176,198,176-198
5266000,EUCALYPTUS DR,L,,1,99,1-99
5288000,EUCLID AVE,L,,1,99,1-99
5300000,EUGENIA AVE,L,,1,99,1-99
5301000,EUGENIA AVE,L,,101,199,101-199
5332101,EVANS AVE,R,,0,0,0-0
5331201,EVANS AVE,L,,0,0,0-0
5332201,EVANS AVE,L,,0,0,0-0
5330101,EVANS AVE,R,,0,0,0-0
5333201,EVANS AVE,L,,0,0,0-0
5331101,EVANS AVE,R,,0,0,0-0
5333101,EVANS AVE,R,,0,0,0-0
5330201,EVANS AVE,L,,0,0,0-0
5344000,EVELYN WAY,R,,2,98,2-98
5358000,EWING TER,R,,200,398,200-398
5372102,EXECUTIVE PARK BLVD,R,,100,136,100-136
5372202,EXECUTIVE PARK BLVD,L,,101,137,101-137
5372103,EXECUTIVE PARK BLVD,R,,138,198,138-198
5372203,EXECUTIVE PARK BLVD,L,,139,199,139-199
5373201,EXECUTIVE PARK BLVD,L,,201,299,201-299
5376000,FAIR AVE,R,,2,34,2-34
5429000,FAXON AVE,L,,0,0,0-0
12893000,FAXON AVE,L,,0,0,0-0
5430000,FAXON AVE,R,,652,698,652-698
5435000,FAXON AVE,R,,952,998,952-998
5723101,FONT BLVD,R,,0,0,0-0
5722201,FONT BLVD,L,,0,0,0-0
5721101,FONT BLVD,R,,0,0,0-0
5723201,FONT BLVD,L,,0,0,0-0
5722101,FONT BLVD,R,,0,0,0-0
5719101,FONT BLVD,R,,0,0,0-0
5717101,FONT BLVD,R,,0,0,0-0
5720201,FONT BLVD,L,,0,0,0-0
5718101,FONT BLVD,R,,0,0,0-0
5719201,FONT BLVD,L,,0,0,0-0
5717201,FONT BLVD,L,,0,0,0-0
5721201,FONT BLVD,L,,0,0,0-0
5718201,FONT BLVD,L,,0,0,0-0
5856000,FREDSON CT,R,,2,98,2-98
6000102,GARCIA AVE,R,,0,0,0-0
6000202,GARCIA AVE,L,,0,0,0-0
6000201,GARCIA AVE,L,,0,0,0-0
6000101,GARCIA AVE,R,,0,0,0-0
6069201,GEARY BLVD,L,,0,0,0-0
6060101,GEARY BLVD,R,,0,0,0-0
6082101,GEARY BLVD,R,,0,0,0-0
6078101,GEARY BLVD,R,,0,0,0-0
6068201,GEARY BLVD,L,,0,0,0-0
6061101,GEARY BLVD,R,,0,0,0-0
6062101,GEARY BLVD,R,,0,0,0-0
6061201,GEARY BLVD,L,,0,0,0-0
6083101,GEARY BLVD,R,,0,0,0-0
6064201,GEARY BLVD,L,,0,0,0-0
6060201,GEARY BLVD,L,,0,0,0-0
6066201,GEARY BLVD,L,,0,0,0-0
6063101,GEARY BLVD,R,,0,0,0-0
6070101,GEARY BLVD,R,,0,0,0-0
6072101,GEARY BLVD,R,,0,0,0-0
6085101,GEARY BLVD,R,,0,0,0-0
6077101,GEARY BLVD,R,,0,0,0-0
6047102,GEARY BLVD,R,,0,0,0-0
6072201,GEARY BLVD,L,,0,0,0-0
6075201,GEARY BLVD,L,,0,0,0-0
6041203,GEARY BLVD,L,,0,0,0-0
6039101,GEARY BLVD,R,,0,0,0-0
6078201,GEARY BLVD,L,,0,0,0-0
6062201,GEARY BLVD,L,,0,0,0-0
6073201,GEARY BLVD,L,,0,0,0-0
6051201,GEARY BLVD,L,,0,0,0-0
6074201,GEARY BLVD,L,,0,0,0-0
6098201,GEARY BLVD,L,,0,0,0-0
6071101,GEARY BLVD,R,,0,0,0-0
6087101,GEARY BLVD,R,,0,0,0-0
6086201,GEARY BLVD,L,,0,0,0-0
6070201,GEARY BLVD,L,,0,0,0-0
6068101,GEARY BLVD,R,,0,0,0-0
6057101,GEARY BLVD,R,,0,0,0-0
6095101,GEARY BLVD,R,,0,0,0-0
6054201,GEARY BLVD,L,,0,0,0-0
6071201,GEARY BLVD,L,,0,0,0-0
6059101,GEARY BLVD,R,,0,0,0-0
6073101,GEARY BLVD,R,,0,0,0-0
6081201,GEARY BLVD,L,,0,0,0-0
6081101,GEARY BLVD,R,,0,0,0-0
6045102,GEARY BLVD,R,,0,0,0-0
6074101,GEARY BLVD,R,,0,0,0-0
6042201,GEARY BLVD,L,,0,0,0-0
6082201,GEARY BLVD,L,,0,0,0-0
6066101,GEARY BLVD,R,,0,0,0-0
6067201,GEARY BLVD,L,,0,0,0-0
6064101,GEARY BLVD,R,,0,0,0-0
6047101,GEARY BLVD,R,,0,0,0-0
6079201,GEARY BLVD,L,,0,0,0-0
6083201,GEARY BLVD,L,,0,0,0-0
6043201,GEARY BLVD,L,,0,0,0-0
6053201,GEARY BLVD,L,,0,0,0-0
6047203,GEARY BLVD,L,,0,0,0-0
6084201,GEARY BLVD,L,,0,0,0-0
6049101,GEARY BLVD,R,,0,0,0-0
6055101,GEARY BLVD,R,,0,0,0-0
6091101,GEARY BLVD,R,,0,0,0-0
6096201,GEARY BLVD,L,,0,0,0-0
6076101,GEARY BLVD,R,,0,0,0-0
6048101,GEARY BLVD,R,,0,0,0-0
6063201,GEARY BLVD,L,,0,0,0-0
6057201,GEARY BLVD,L,,0,0,0-0
6041204,GEARY BLVD,L,,0,0,0-0
6044201,GEARY BLVD,L,,0,0,0-0
6098101,GEARY BLVD,R,,0,0,0-0
6088201,GEARY BLVD,L,,0,0,0-0
6047201,GEARY BLVD,L,,0,0,0-0
6080101,GEARY BLVD,R,,0,0,0-0
6075101,GEARY BLVD,R,,0,0,0-0
6094101,GEARY BLVD,R,,0,0,0-0
6040201,GEARY BLVD,L,,0,0,0-0
6077201,GEARY BLVD,L,,0,0,0-0
6093101,GEARY BLVD,R,,0,0,0-0
6079101,GEARY BLVD,R,,0,0,0-0
6059201,GEARY BLVD,L,,0,0,0-0
6065101,GEARY BLVD,R,,0,0,0-0
6093201,GEARY BLVD,L,,0,0,0-0
6088101,GEARY BLVD,R,,0,0,0-0
6058101,GEARY BLVD,R,,0,0,0-0
6085201,GEARY BLVD,L,,0,0,0-0
6041202,GEARY BLVD,L,,0,0,0-0
6052101,GEARY BLVD,R,,0,0,0-0
6069101,GEARY BLVD,R,,0,0,0-0
6046201,GEARY BLVD,L,,0,0,0-0
6087201,GEARY BLVD,L,,0,0,0-0
6055201,GEARY BLVD,L,,0,0,0-0
6047202,GEARY BLVD,L,,0,0,0-0
6092101,GEARY BLVD,R,,0,0,0-0
6086101,GEARY BLVD,R,,0,0,0-0
6049201,GEARY BLVD,L,,0,0,0-0
6067101,GEARY BLVD,R,,0,0,0-0
6084101,GEARY BLVD,R,,0,0,0-0
6039201,GEARY BLVD,L,,0,0,0-0
6053101,GEARY BLVD,R,,0,0,0-0
6089201,GEARY BLVD,L,,0,0,0-0
6045202,GEARY BLVD,L,,0,0,0-0
6045101,GEARY BLVD,R,,0,0,0-0
6055202,GEARY BLVD,L,,0,0,0-0
6056201,GEARY BLVD,L,,0,0,0-0
6048201,GEARY BLVD,L,,0,0,0-0
6056101,GEARY BLVD,R,,0,0,0-0
6054101,GEARY BLVD,R,,0,0,0-0
6046101,GEARY BLVD,R,,0,0,0-0
6050201,GEARY BLVD,L,,0,0,0-0
6040102,GEARY BLVD,R,,0,0,0-0
6076201,GEARY BLVD,L,,0,0,0-0
6080201,GEARY BLVD,L,,0,0,0-0
6050101,GEARY BLVD,R,,0,0,0-0
6044202,GEARY BLVD,L,,0,0,0-0
6045201,GEARY BLVD,L,,0,0,0-0
6051101,GEARY BLVD,R,,0,0,0-0
6040103,GEARY BLVD,R,,0,0,0-0
6040104,GEARY BLVD,R,,0,0,0-0
6058201,GEARY BLVD,L,,0,0,0-0
6039102,GEARY BLVD,R,,0,0,0-0
6044101,GEARY BLVD,R,,0,0,0-0
6065201,GEARY BLVD,L,,0,0,0-0
6100201,GEARY BLVD,L,,0,0,0-0
6095201,GEARY BLVD,L,,0,0,0-0
6052201,GEARY BLVD,L,,0,0,0-0
6091201,GEARY BLVD,L,,0,0,0-0
6092201,GEARY BLVD,L,,0,0,0-0
6090101,GEARY BLVD,R,,0,0,0-0
6094201,GEARY BLVD,L,,0,0,0-0
6099101,GEARY BLVD,R,,0,0,0-0
6089101,GEARY BLVD,R,,0,0,0-0
6100101,GEARY BLVD,R,,0,0,0-0
6096101,GEARY BLVD,R,,0,0,0-0
6090201,GEARY BLVD,L,,0,0,0-0
6150102,GENEVA AVE,R,,0,0,0-0
6139101,GENEVA AVE,R,,0,0,0-0
6128201,GENEVA AVE,L,,0,0,0-0
6148201,GENEVA AVE,L,,0,0,0-0
6135101,GENEVA AVE,R,,0,0,0-0
6150201,GENEVA AVE,L,,0,0,0-0
6129201,GENEVA AVE,L,,0,0,0-0
6152101,GENEVA AVE,R,,0,0,0-0
6142101,GENEVA AVE,R,,0,0,0-0
6130201,GENEVA AVE,L,,0,0,0-0
6132201,GENEVA AVE,L,,0,0,0-0
6134102,GENEVA AVE,R,,0,0,0-0
6138101,GENEVA AVE,R,,0,0,0-0
6133201,GENEVA AVE,L,,0,0,0-0
6149101,GENEVA AVE,R,,0,0,0-0
6137101,GENEVA AVE,R,,0,0,0-0
6143101,GENEVA AVE,R,,0,0,0-0
6136101,GENEVA AVE,R,,0,0,0-0
6149201,GENEVA AVE,L,,0,0,0-0
6150101,GENEVA AVE,R,,0,0,0-0
6131201,GENEVA AVE,L,,0,0,0-0
6141101,GENEVA AVE,R,,0,0,0-0
6134201,GENEVA AVE,L,,0,0,0-0
6146101,GENEVA AVE,R,,0,0,0-0
6151101,GENEVA AVE,R,,0,0,0-0
6133101,GENEVA AVE,R,,0,0,0-0
6132101,GENEVA AVE,R,,0,0,0-0
6152201,GENEVA AVE,L,,0,0,0-0
6148204,GENEVA AVE,L,,0,0,0-0
6147101,GENEVA AVE,R,,0,0,0-0
6145101,GENEVA AVE,R,,0,0,0-0
6135201,GENEVA AVE,L,,0,0,0-0
6153101,GENEVA AVE,R,,0,0,0-0
6140101,GENEVA AVE,R,,0,0,0-0
6127201,GENEVA AVE,L,,0,0,0-0
6144101,GENEVA AVE,R,,0,0,0-0
6134101,GENEVA AVE,R,,0,0,0-0
6148203,GENEVA AVE,L,,0,0,0-0
6148101,GENEVA AVE,R,,0,0,0-0
6153201,GENEVA AVE,L,,0,0,0-0
6151201,GENEVA AVE,L,,0,0,0-0
6168000,GIANTS DR,R,,nan,nan,nan-nan
6169000,GIANTS DR,L,,nan,nan,nan-nan
6221000,GLENVIEW DR,L,,0,0,0-0
6355000,GRAFTON AVE,R,,0,0,0-0
6372201,GRAND VIEW AVE,L,,0,0,0-0
6372101,GRAND VIEW AVE,R,,0,0,0-0
6372102,GRAND VIEW AVE,R,,0,0,0-0
6418000,GRANT AVE,R,,2200,2298,2200-2298
6432101,GREAT HWY,R,,0,0,0-0
6434201,GREAT HWY,L,,0,0,0-0
6434101,GREAT HWY,R,,0,0,0-0
6433101,GREAT HWY,R,,0,0,0-0
6435101,GREAT HWY,R,,0,0,0-0
6431201,GREAT HWY,L,,0,0,0-0
6433201,GREAT HWY,L,,0,0,0-0
6435201,GREAT HWY,L,,0,0,0-0
6432201,GREAT HWY,L,,0,0,0-0
6431101,GREAT HWY,R,,0,0,0-0
6444001,GREEN ST,L,,301,337,301-337
6444002,GREEN ST,L,,339,347,339-347
6445000,GREEN ST,L,,349,363,349-363
6446000,GREEN ST,L,,365,389,365-389
6447000,GREEN ST,L,,391,399,391-399
6448000,GREEN ST,R,,400,420,400-420
6449000,GREEN ST,R,,422,444,422-444
6450000,GREEN ST,R,,446,498,446-498
6486000,GREENWICH ST,L,,201,229,201-229
6582202,GUERRERO ST,L,,0,0,0-0
6581101,GUERRERO ST,R,,0,0,0-0
6577101,GUERRERO ST,R,,0,0,0-0
6584201,GUERRERO ST,L,,0,0,0-0
6582201,GUERRERO ST,L,,0,0,0-0
6586201,GUERRERO ST,L,,0,0,0-0
6577201,GUERRERO ST,L,,0,0,0-0
6578201,GUERRERO ST,L,,0,0,0-0
6586101,GUERRERO ST,R,,0,0,0-0
6581202,GUERRERO ST,L,,0,0,0-0
6578101,GUERRERO ST,R,,0,0,0-0
6585201,GUERRERO ST,L,,0,0,0-0
6590101,GUERRERO ST,R,,0,0,0-0
6583102,GUERRERO ST,R,,0,0,0-0
6584102,GUERRERO ST,R,,0,0,0-0
6587201,GUERRERO ST,L,,0,0,0-0
6575201,GUERRERO ST,L,,0,0,0-0
6583201,GUERRERO ST,L,,0,0,0-0
6587101,GUERRERO ST,R,,0,0,0-0
6579201,GUERRERO ST,L,,0,0,0-0
6585102,GUERRERO ST,R,,0,0,0-0
6575101,GUERRERO ST,R,,0,0,0-0
6582101,GUERRERO ST,R,,0,0,0-0
6578102,GUERRERO ST,R,,0,0,0-0
6579202,GUERRERO ST,L,,0,0,0-0
6588201,GUERRERO ST,L,,0,0,0-0
6584101,GUERRERO ST,R,,0,0,0-0
6582102,GUERRERO ST,R,,0,0,0-0
6576201,GUERRERO ST,L,,0,0,0-0
6580101,GUERRERO ST,R,,0,0,0-0
6575102,GUERRERO ST,R,,0,0,0-0
6576102,GUERRERO ST,R,,0,0,0-0
6589101,GUERRERO ST,R,,0,0,0-0
6580201,GUERRERO ST,L,,0,0,0-0
6585101,GUERRERO ST,R,,0,0,0-0
6575103,GUERRERO ST,R,,0,0,0-0
6583101,GUERRERO ST,R,,0,0,0-0
6576103,GUERRERO ST,R,,0,0,0-0
6579101,GUERRERO ST,R,,0,0,0-0
6581201,GUERRERO ST,L,,0,0,0-0
6588101,GUERRERO ST,R,,0,0,0-0
6593000,GUTTENBERG ST,R,,100,198,100-198
6592000,GUTTENBERG ST,R,,2,98,2-98
6594000,GUTTENBERG ST,R,,200,248,200-248
6595000,GUTTENBERG ST,R,,250,298,250-298
6782000,HAVELOCK ST,R,,300,398,300-398
6811000,HAYES ST,R,,2,48,2-48
6846000,HEAD ST,R,,2,48,2-48
6850000,HEAD ST,L,,201,215,201-215
6873000,HELENA ST,L,,101,199,101-199
6899000,HICKORY ST,R,,100,198,100-198
6918000,HIGUERA AVE,R,,0,0,0-0
6943101,HOLLADAY AVE,R,,0,0,0-0
6943102,HOLLADAY AVE,R,,0,0,0-0
6943201,HOLLADAY AVE,L,,0,0,0-0
6943202,HOLLADAY AVE,L,,0,0,0-0
6997102,HOLLOWAY AVE,R,,0,0,0-0
6997202,HOLLOWAY AVE,L,,0,0,0-0
6998101,HOLLOWAY AVE,R,,0,0,0-0
6997201,HOLLOWAY AVE,L,,0,0,0-0
6998201,HOLLOWAY AVE,L,,0,0,0-0
6996201,HOLLOWAY AVE,L,,0,0,0-0
6995201,HOLLOWAY AVE,L,,0,0,0-0
6995101,HOLLOWAY AVE,R,,0,0,0-0
6998202,HOLLOWAY AVE,L,,0,0,0-0
6994201,HOLLOWAY AVE,L,,0,0,0-0
6997101,HOLLOWAY AVE,R,,0,0,0-0
6996101,HOLLOWAY AVE,R,,0,0,0-0
6994101,HOLLOWAY AVE,R,,0,0,0-0
6992000,HOLLOWAY AVE,R,,1396,1398,1396-1398
7016000,HOLYOKE ST,R,,nan,nan,nan-nan
7158201,IDORA AVE,L,,0,0,0-0
7158101,IDORA AVE,R,,0,0,0-0
7158102,IDORA AVE,R,,0,0,0-0
7159000,IGNACIO AVE,L,,1,99,1-99
7207101,INDUSTRIAL ST,R,,0,0,0-0
7206201,INDUSTRIAL ST,L,,0,0,0-0
7204101,INDUSTRIAL ST,R,,0,0,0-0
7206101,INDUSTRIAL ST,R,,0,0,0-0
7207201,INDUSTRIAL ST,L,,0,0,0-0
7205201,INDUSTRIAL ST,L,,0,0,0-0
19397001,INNES AVE,L,,601,699,601-699
7425201,JAMESTOWN AVE,L,,nan,nan,nan-nan
7425101,JAMESTOWN AVE,R,,nan,nan,nan-nan
7466000,JENNINGS CT,R,,2,30,2-30
7468000,JENNINGS CT,R,,52,98,52-98
7500201,JERROLD AVE,L,,0,0,0-0
7500101,JERROLD AVE,R,,0,0,0-0
7500102,JERROLD AVE,R,,0,0,0-0
7505000,JERROLD AVE,R,,2368,2398,2368-2398
7506000,JERROLD AVE,L,,2371,2399,2371-2399
9706000,JERROLD AVE,L,,701,799,701-799
7523000,JESSIE ST,L,,501,599,501-599
7624000,JUAN BAUTISTA CIR,L,,0,0,0-0
7652101,JUDAH ST,R,,0,0,0-0
7647101,JUDAH ST,R,,0,0,0-0
7653101,JUDAH ST,R,,0,0,0-0
7651201,JUDAH ST,L,,0,0,0-0
7648101,JUDAH ST,R,,0,0,0-0
7648201,JUDAH ST,L,,0,0,0-0
7645201,JUDAH ST,L,,0,0,0-0
7645101,JUDAH ST,R,,0,0,0-0
7644201,JUDAH ST,L,,0,0,0-0
7646101,JUDAH ST,R,,0,0,0-0
7652201,JUDAH ST,L,,0,0,0-0
7651101,JUDAH ST,R,,0,0,0-0
7650201,JUDAH ST,L,,0,0,0-0
7647201,JUDAH ST,L,,0,0,0-0
7644101,JUDAH ST,R,,0,0,0-0
7649101,JUDAH ST,R,,0,0,0-0
7649201,JUDAH ST,L,,0,0,0-0
7653201,JUDAH ST,L,,0,0,0-0
7650101,JUDAH ST,R,,0,0,0-0
7710201,JUNIPERO SERRA BLVD,L,,0,0,0-0
7705000,JUNIPERO SERRA BLVD,R,,0,0,0-0
7722000,JUSTIN DR,R,,220,298,220-298
7723000,JUSTIN DR,L,,235,299,235-299
7807201,KENSINGTON WAY,L,,0,0,0-0
7807101,KENSINGTON WAY,R,,0,0,0-0
7828201,KEZAR DR,L,,0,0,0-0
7827101,KEZAR DR,R,,0,0,0-0
7827201,KEZAR DR,L,,0,0,0-0
7828101,KEZAR DR,R,,0,0,0-0
7827102,KEZAR DR,R,,0,0,0-0
7834201,KING ST,L,,0,0,0-0
7833101,KING ST,R,,0,0,0-0
7834101,KING ST,R,,0,0,0-0
7833201,KING ST,L,,0,0,0-0
7890001,KIRKWOOD AVE,R,,100,110,100-110
7890002,KIRKWOOD AVE,R,,112,114,112-114
7890003,KIRKWOOD AVE,R,,116,126,116-126
7890004,KIRKWOOD AVE,R,,128,198,128-198
7932201,LA SALLE AVE,L,,0,0,0-0
7931102,LA SALLE AVE,R,,0,0,0-0
7931202,LA SALLE AVE,L,,0,0,0-0
7931201,LA SALLE AVE,L,,0,0,0-0
7997201,LAGUNA HONDA BLVD,L,,0,0,0-0
7989101,LAGUNA HONDA BLVD,R,,0,0,0-0
7988101,LAGUNA HONDA BLVD,R,,0,0,0-0
7991101,LAGUNA HONDA BLVD,R,,0,0,0-0
7988201,LAGUNA HONDA BLVD,L,,0,0,0-0
7998101,LAGUNA HONDA BLVD,R,,0,0,0-0
7990101,LAGUNA HONDA BLVD,R,,0,0,0-0
7991201,LAGUNA HONDA BLVD,L,,0,0,0-0
7990201,LAGUNA HONDA BLVD,L,,0,0,0-0
7989201,LAGUNA HONDA BLVD,L,,0,0,0-0
7992101,LAGUNA HONDA BLVD,R,,0,0,0-0
7992202,LAGUNA HONDA BLVD,L,,0,0,0-0
7992201,LAGUNA HONDA BLVD,L,,0,0,0-0
7998201,LAGUNA HONDA BLVD,L,,0,0,0-0
7997101,LAGUNA HONDA BLVD,R,,0,0,0-0
8051101,LAKE MERCED BLVD,R,,0,0,0-0
8050201,LAKE MERCED BLVD,L,,0,0,0-0
8051201,LAKE MERCED BLVD,L,,0,0,0-0
8049101,LAKE MERCED BLVD,R,,0,0,0-0
8049201,LAKE MERCED BLVD,L,,0,0,0-0
8043000,LAKE MERCED BLVD,L,,100,198,100-198
8042000,LAKE MERCED BLVD,R,,2,98,2-98
8040201,LAKE ST,L,,0,0,0-0
8040101,LAKE ST,R,,0,0,0-0
8037000,LAKE ST,R,,2650,2698,2650-2698
8155000,LARKIN ST,R,,2700,2798,2700-2798
8165000,LATHROP AVE,R,,600,698,600-698
8197101,LAWTON ST,R,,0,0,0-0
8197201,LAWTON ST,L,,0,0,0-0
8196201,LAWTON ST,L,,0,0,0-0
8196101,LAWTON ST,R,,0,0,0-0
8273000,LEAVENWORTH ST,L,,2701,2749,2701-2749
8324201,LIBERTY ST,L,,0,0,0-0
8324101,LIBERTY ST,R,,0,0,0-0
8329000,LIEBIG ST,L,,1,21,1-21
8379101,LINCOLN WAY,R,,0,0,0-0
8375201,LINCOLN WAY,L,,0,0,0-0
8376201,LINCOLN WAY,L,,0,0,0-0
8381201,LINCOLN WAY,L,,0,0,0-0
8372101,LINCOLN WAY,R,,0,0,0-0
8356101,LINCOLN WAY,R,,0,0,0-0
8387201,LINCOLN WAY,L,,0,0,0-0
8361201,LINCOLN WAY,L,,0,0,0-0
8363201,LINCOLN WAY,L,,0,0,0-0
8362101,LINCOLN WAY,R,,0,0,0-0
8366101,LINCOLN WAY,R,,0,0,0-0
8367201,LINCOLN WAY,L,,0,0,0-0
8348201,LINCOLN WAY,L,,0,0,0-0
8357101,LINCOLN WAY,R,,0,0,0-0
8371201,LINCOLN WAY,L,,0,0,0-0
8360201,LINCOLN WAY,L,,0,0,0-0
8385201,LINCOLN WAY,L,,0,0,0-0
8354201,LINCOLN WAY,L,,0,0,0-0
8378201,LINCOLN WAY,L,,0,0,0-0
8386201,LINCOLN WAY,L,,0,0,0-0
8380201,LINCOLN WAY,L,,0,0,0-0
8368201,LINCOLN WAY,L,,0,0,0-0
8384101,LINCOLN WAY,R,,0,0,0-0
8355201,LINCOLN WAY,L,,0,0,0-0
8362201,LINCOLN WAY,L,,0,0,0-0
8371101,LINCOLN WAY,R,,0,0,0-0
8383201,LINCOLN WAY,L,,0,0,0-0
8377201,LINCOLN WAY,L,,0,0,0-0
8385101,LINCOLN WAY,R,,0,0,0-0
8347101,LINCOLN WAY,R,,0,0,0-0
8366201,LINCOLN WAY,L,,0,0,0-0
8350201,LINCOLN WAY,L,,0,0,0-0
8359101,LINCOLN WAY,R,,0,0,0-0
8363101,LINCOLN WAY,R,,0,0,0-0
8342202,LINCOLN WAY,L,,0,0,0-0
8369201,LINCOLN WAY,L,,0,0,0-0
8370101,LINCOLN WAY,R,,0,0,0-0
8377101,LINCOLN WAY,R,,0,0,0-0
8374201,LINCOLN WAY,L,,0,0,0-0
8364201,LINCOLN WAY,L,,0,0,0-0
8353201,LINCOLN WAY,L,,0,0,0-0
8346101,LINCOLN WAY,R,,0,0,0-0
8378101,LINCOLN WAY,R,,0,0,0-0
8381101,LINCOLN WAY,R,,0,0,0-0
8382201,LINCOLN WAY,L,,0,0,0-0
8370201,LINCOLN WAY,L,,0,0,0-0
8383101,LINCOLN WAY,R,,0,0,0-0
8349201,LINCOLN WAY,L,,0,0,0-0
8360101,LINCOLN WAY,R,,0,0,0-0
8382101,LINCOLN WAY,R,,0,0,0-0
8365201,LINCOLN WAY,L,,0,0,0-0
8358101,LINCOLN WAY,R,,0,0,0-0
8379201,LINCOLN WAY,L,,0,0,0-0
8349101,LINCOLN WAY,R,,0,0,0-0
8372201,LINCOLN WAY,L,,0,0,0-0
8384201,LINCOLN WAY,L,,0,0,0-0
8369101,LINCOLN WAY,R,,0,0,0-0
8364101,LINCOLN WAY,R,,0,0,0-0
8361101,LINCOLN WAY,R,,0,0,0-0
8351201,LINCOLN WAY,L,,0,0,0-0
8358201,LINCOLN WAY,L,,0,0,0-0
8346201,LINCOLN WAY,L,,0,0,0-0
8350101,LINCOLN WAY,R,,0,0,0-0
8354101,LINCOLN WAY,R,,0,0,0-0
8376101,LINCOLN WAY,R,,0,0,0-0
8365101,LINCOLN WAY,R,,0,0,0-0
8367101,LINCOLN WAY,R,,0,0,0-0
8359201,LINCOLN WAY,L,,0,0,0-0
8356201,LINCOLN WAY,L,,0,0,0-0
8353101,LINCOLN WAY,R,,0,0,0-0
8368101,LINCOLN WAY,R,,0,0,0-0
8342201,LINCOLN WAY,L,,0,0,0-0
8352101,LINCOLN WAY,R,,0,0,0-0
8344201,LINCOLN WAY,L,,0,0,0-0
8380101,LINCOLN WAY,R,,0,0,0-0
8373101,LINCOLN WAY,R,,0,0,0-0
8352201,LINCOLN WAY,L,,0,0,0-0
8348101,LINCOLN WAY,R,,0,0,0-0
8345201,LINCOLN WAY,L,,0,0,0-0
8355101,LINCOLN WAY,R,,0,0,0-0
8351101,LINCOLN WAY,R,,0,0,0-0
8386101,LINCOLN WAY,R,,0,0,0-0
8387101,LINCOLN WAY,R,,0,0,0-0
19934000,LOIS LN,R,,1,99,1-99
8459101,LOMBARD ST,R,,0,0,0-0
8462201,LOMBARD ST,L,,0,0,0-0
8460201,LOMBARD ST,L,,0,0,0-0
8461101,LOMBARD ST,R,,0,0,0-0
8453101,LOMBARD ST,R,,0,0,0-0
8464101,LOMBARD ST,R,,0,0,0-0
8460101,LOMBARD ST,R,,0,0,0-0
8458101,LOMBARD ST,R,,0,0,0-0
8457101,LOMBARD ST,R,,0,0,0-0
8465101,LOMBARD ST,R,,0,0,0-0
8454201,LOMBARD ST,L,,0,0,0-0
8461201,LOMBARD ST,L,,0,0,0-0
8454101,LOMBARD ST,R,,0,0,0-0
8456201,LOMBARD ST,L,,0,0,0-0
8463201,LOMBARD ST,L,,0,0,0-0
8465201,LOMBARD ST,L,,0,0,0-0
8464201,LOMBARD ST,L,,0,0,0-0
8463101,LOMBARD ST,R,,0,0,0-0
8459201,LOMBARD ST,L,,0,0,0-0
8456101,LOMBARD ST,R,,0,0,0-0
8462101,LOMBARD ST,R,,0,0,0-0
8455201,LOMBARD ST,L,,0,0,0-0
8457201,LOMBARD ST,L,,0,0,0-0
8458201,LOMBARD ST,L,,0,0,0-0
8453201,LOMBARD ST,L,,0,0,0-0
8455101,LOMBARD ST,R,,0,0,0-0
3025201,LYELL ST,L,,1,69,1-69
8599000,MADISON ST,R,,nan,nan,nan-nan
8619202,MAGELLAN AVE,L,,0,0,0-0
8619201,MAGELLAN AVE,L,,0,0,0-0
8619101,MAGELLAN AVE,R,,0,0,0-0
8616101,MAGELLAN AVE,L,,1,49,1-49
8616201,MAGELLAN AVE,R,,2,98,2-98
8640201,MALTA DR,L,,0,0,0-0
8640101,MALTA DR,R,,0,0,0-0
8666201,MANSELL ST,L,,0,0,0-0
8671102,MANSELL ST,R,,0,0,0-0
8666101,MANSELL ST,R,,0,0,0-0
8665201,MANSELL ST,L,,0,0,0-0
8671203,MANSELL ST,L,,0,0,0-0
8671101,MANSELL ST,R,,0,0,0-0
8670101,MANSELL ST,R,,0,0,0-0
8669102,MANSELL ST,R,,0,0,0-0
8671204,MANSELL ST,L,,0,0,0-0
8669201,MANSELL ST,L,,0,0,0-0
8671202,MANSELL ST,L,,0,0,0-0
8668101,MANSELL ST,R,,0,0,0-0
8669101,MANSELL ST,R,,0,0,0-0
8665101,MANSELL ST,R,,0,0,0-0
8670201,MANSELL ST,L,,0,0,0-0
8667101,MANSELL ST,R,,0,0,0-0
8667201,MANSELL ST,L,,0,0,0-0
8668201,MANSELL ST,L,,0,0,0-0
8671201,MANSELL ST,L,,0,0,0-0
8699000,MARIN ST,L,,1431,2099,1431-2099
8706101,MARINA BLVD,R,,0,0,0-0
8708201,MARINA BLVD,L,,0,0,0-0
8705101,MARINA BLVD,R,,0,0,0-0
8709201,MARINA BLVD,L,,0,0,0-0
8704201,MARINA BLVD,L,,0,0,0-0
8703202,MARINA BLVD,L,,0,0,0-0
8709202,MARINA BLVD,L,,0,0,0-0
8708101,MARINA BLVD,R,,0,0,0-0
8709101,MARINA BLVD,R,,0,0,0-0
8702101,MARINA BLVD,R,,0,0,0-0
8705201,MARINA BLVD,L,,0,0,0-0
8707201,MARINA BLVD,L,,0,0,0-0
8704101,MARINA BLVD,R,,0,0,0-0
8702201,MARINA BLVD,L,,0,0,0-0
8703201,MARINA BLVD,L,,0,0,0-0
8706201,MARINA BLVD,L,,0,0,0-0
8703101,MARINA BLVD,R,,0,0,0-0
8707101,MARINA BLVD,R,,0,0,0-0
8756201,MARKET ST,L,,0,0,0-0
8757102,MARKET ST,R,,0,0,0-0
8758201,MARKET ST,L,,0,0,0-0
8776201,MARKET ST,L,,0,0,0-0
8757202,MARKET ST,L,,0,0,0-0
8738201,MARKET ST,L,,0,0,0-0
8758101,MARKET ST,R,,0,0,0-0
8774102,MARKET ST,R,,0,0,0-0
8738101,MARKET ST,R,,0,0,0-0
8755101,MARKET ST,R,,0,0,0-0
8757201,MARKET ST,L,,0,0,0-0
8737201,MARKET ST,L,,0,0,0-0
8737101,MARKET ST,R,,0,0,0-0
8776205,MARKET ST,L,,0,0,0-0
8774103,MARKET ST,R,,0,0,0-0
8755201,MARKET ST,L,,0,0,0-0
8774101,MARKET ST,R,,0,0,0-0
8757101,MARKET ST,R,,0,0,0-0
8776206,MARKET ST,L,,0,0,0-0
8756101,MARKET ST,R,,0,0,0-0
8737102,MARKET ST,R,,0,0,0-0
8772102,MARKET ST,R,,0,0,0-0
8758202,MARKET ST,L,,0,0,0-0
8774104,MARKET ST,R,,0,0,0-0
8776101,MARKET ST,R,,0,0,0-0
8777201,MARKET ST,L,,0,0,0-0
8776103,MARKET ST,R,,0,0,0-0
8772101,MARKET ST,R,,0,0,0-0
8774203,MARKET ST,L,,0,0,0-0
8776104,MARKET ST,R,,0,0,0-0
8776203,MARKET ST,L,,0,0,0-0
8777101,MARKET ST,R,,0,0,0-0
8775101,MARKET ST,R,,0,0,0-0
8772103,MARKET ST,R,,0,0,0-0
8773201,MARKET ST,L,,0,0,0-0
8776105,MARKET ST,R,,0,0,0-0
8774201,MARKET ST,L,,0,0,0-0
8773202,MARKET ST,L,,0,0,0-0
8776202,MARKET ST,L,,0,0,0-0
8772202,MARKET ST,L,,0,0,0-0
8772201,MARKET ST,L,,0,0,0-0
8768201,MARKET ST,L,,0,0,0-0
8773101,MARKET ST,R,,0,0,0-0
8776204,MARKET ST,L,,0,0,0-0
8775201,MARKET ST,L,,0,0,0-0
8776102,MARKET ST,R,,0,0,0-0
8845201,MASONIC AVE,L,,0,0,0-0
8843101,MASONIC AVE,R,,0,0,0-0
8845101,MASONIC AVE,R,,0,0,0-0
8844101,MASONIC AVE,R,,0,0,0-0
8841000,MASONIC AVE,L,,0,0,0-0
8844201,MASONIC AVE,L,,0,0,0-0
8887000,MCALLISTER ST,L,,1,9,1-9
8921000,MCKINNON AVE,R,,1400,1498,1400-1498
8973000,MENDOSA AVE,R,,132,160,132-160
8974000,MENDOSA AVE,L,,161,199,161-199
8975000,MERCATO CT,R,,2,98,2-98
9036201,MINERVA ST,L,,0,0,0-0
9036101,MINERVA ST,R,,0,0,0-0
9077201,MIRAMAR AVE,L,,0,0,0-0
9078201,MIRAMAR AVE,L,,0,0,0-0
9074201,MIRAMAR AVE,L,,0,0,0-0
9079201,MIRAMAR AVE,L,,0,0,0-0
9076201,MIRAMAR AVE,L,,0,0,0-0
9075201,MIRAMAR AVE,L,,0,0,0-0
15191000,MISSION BAY CIR,L,,0,0,0-0
15190000,MISSION BAY CIR,L,,0,0,0-0
15192000,MISSION BAY CIR,L,,0,0,0-0
15189000,MISSION BAY CIR,L,,0,0,0-0
15188000,MISSION BAY CIR,L,,0,0,0-0
15023102,MISSION BAY DR,R,,0,0,0-0
15023204,MISSION BAY DR,L,,0,0,0-0
15023103,MISSION BAY DR,R,,0,0,0-0
15023203,MISSION BAY DR,L,,0,0,0-0
9171101,MISSION ST,R,,0,0,0-0
9153201,MISSION ST,L,,0,0,0-0
9149101,MISSION ST,R,,0,0,0-0
9147201,MISSION ST,L,,0,0,0-0
9152101,MISSION ST,R,,0,0,0-0
9095202,MISSION ST,L,,0,0,0-0
9153101,MISSION ST,R,,0,0,0-0
9149201,MISSION ST,L,,0,0,0-0
9174101,MISSION ST,R,,0,0,0-0
9095201,MISSION ST,L,,0,0,0-0
9109101,MISSION ST,R,,0,0,0-0
9171201,MISSION ST,L,,0,0,0-0
9148101,MISSION ST,R,,0,0,0-0
9174201,MISSION ST,L,,0,0,0-0
9151201,MISSION ST,L,,0,0,0-0
9176201,MISSION ST,L,,0,0,0-0
9173201,MISSION ST,L,,0,0,0-0
9176101,MISSION ST,R,,0,0,0-0
9173101,MISSION ST,R,,0,0,0-0
9148201,MISSION ST,L,,0,0,0-0
9152201,MISSION ST,L,,0,0,0-0
9147101,MISSION ST,R,,0,0,0-0
9095101,MISSION ST,R,,0,0,0-0
9112101,MISSION ST,R,,0,0,0-0
9109201,MISSION ST,L,,0,0,0-0
9154101,MISSION ST,R,,0,0,0-0
9172201,MISSION ST,L,,0,0,0-0
9154201,MISSION ST,L,,0,0,0-0
9172101,MISSION ST,R,,0,0,0-0
9112201,MISSION ST,L,,0,0,0-0
9109102,MISSION ST,R,,0,0,0-0
9236000,MONCADA WAY,R,,216,270,216-270
9237000,MONCADA WAY,L,,225,267,225-267
9240000,MONCADA WAY,R,,400,498,400-498
9279101,MONTEREY BLVD,R,,0,0,0-0
9274101,MONTEREY BLVD,R,,0,0,0-0
9280102,MONTEREY BLVD,R,,0,0,0-0
9280101,MONTEREY BLVD,R,,0,0,0-0
9272101,MONTEREY BLVD,R,,0,0,0-0
9284201,MONTEREY BLVD,L,,0,0,0-0
9278101,MONTEREY BLVD,R,,0,0,0-0
9276101,MONTEREY BLVD,R,,0,0,0-0
9283201,MONTEREY BLVD,L,,0,0,0-0
9284103,MONTEREY BLVD,R,,0,0,0-0
9273101,MONTEREY BLVD,R,,0,0,0-0
9275101,MONTEREY BLVD,R,,0,0,0-0
9276201,MONTEREY BLVD,L,,0,0,0-0
9275202,MONTEREY BLVD,L,,0,0,0-0
9285101,MONTEREY BLVD,R,,0,0,0-0
9291201,MONTEREY BLVD,L,,0,0,0-0
9278201,MONTEREY BLVD,L,,0,0,0-0
9272201,MONTEREY BLVD,L,,0,0,0-0
9293101,MONTEREY BLVD,R,,0,0,0-0
9282201,MONTEREY BLVD,L,,0,0,0-0
9285201,MONTEREY BLVD,L,,0,0,0-0
9282101,MONTEREY BLVD,R,,0,0,0-0
9288201,MONTEREY BLVD,L,,0,0,0-0
9281101,MONTEREY BLVD,R,,0,0,0-0
9284101,MONTEREY BLVD,R,,0,0,0-0
9274201,MONTEREY BLVD,L,,0,0,0-0
9294201,MONTEREY BLVD,L,,0,0,0-0
9286102,MONTEREY BLVD,R,,0,0,0-0
9277201,MONTEREY BLVD,L,,0,0,0-0
9294101,MONTEREY BLVD,R,,0,0,0-0
9275201,MONTEREY BLVD,L,,0,0,0-0
9280201,MONTEREY BLVD,L,,0,0,0-0
9283101,MONTEREY BLVD,R,,0,0,0-0
9281201,MONTEREY BLVD,L,,0,0,0-0
9287201,MONTEREY BLVD,L,,0,0,0-0
9290101,MONTEREY BLVD,R,,0,0,0-0
9288101,MONTEREY BLVD,R,,0,0,0-0
9279201,MONTEREY BLVD,L,,0,0,0-0
9277101,MONTEREY BLVD,R,,0,0,0-0
9292101,MONTEREY BLVD,R,,0,0,0-0
9275102,MONTEREY BLVD,R,,0,0,0-0
9284102,MONTEREY BLVD,R,,0,0,0-0
9292201,MONTEREY BLVD,L,,0,0,0-0
9273201,MONTEREY BLVD,L,,0,0,0-0
9284104,MONTEREY BLVD,R,,0,0,0-0
9286201,MONTEREY BLVD,L,,0,0,0-0
9287101,MONTEREY BLVD,R,,0,0,0-0
9289101,MONTEREY BLVD,R,,0,0,0-0
9286101,MONTEREY BLVD,R,,0,0,0-0
9291101,MONTEREY BLVD,R,,0,0,0-0
9288202,MONTEREY BLVD,L,,0,0,0-0
9284202,MONTEREY BLVD,L,,0,0,0-0
9290201,MONTEREY BLVD,L,,0,0,0-0
9289201,MONTEREY BLVD,L,,0,0,0-0
9293201,MONTEREY BLVD,L,,0,0,0-0
4041000,MONTEREY BLVD,L,,1,9,1-9
4042000,MONTEREY BLVD,L,,11,19,11-19
4043000,MONTEREY BLVD,L,,21,49,21-49
9342101,MORAGA ST,R,,0,0,0-0
9342201,MORAGA ST,L,,0,0,0-0
9497201,NAPLES ST,R,,1000,1098,1000-1098
9497101,NAPLES ST,L,,1001,1099,1001-1099
9502000,NAPLES ST,L,,nan,nan,nan-nan
9506000,NATOMA ST,L,,1,19,1-19
9508000,NATOMA ST,R,,100,132,100-132
9518000,NATOMA ST,R,,1084,1150,1084-1150
9509000,NATOMA ST,R,,134,198,134-198
9507000,NATOMA ST,L,,21,99,21-99
9548201,NEWCOMB AVE,L,,0,0,0-0
9549203,NEWCOMB AVE,L,,0,0,0-0
9549202,NEWCOMB AVE,L,,0,0,0-0
9580000,NEWHALL ST,R,,2500,2510,2500-2510
9587000,NEWTON ST,R,,0,0,0-0
9591000,NIAGARA AVE,L,,1,99,1-99
9650201,NORIEGA ST,L,,0,0,0-0
9648203,NORIEGA ST,R,,0,0,0-0
9647201,NORIEGA ST,L,,0,0,0-0
9647202,NORIEGA ST,L,,0,0,0-0
9650101,NORIEGA ST,R,,0,0,0-0
9647203,NORIEGA ST,L,,0,0,0-0
9647102,NORIEGA ST,R,,0,0,0-0
9647101,NORIEGA ST,R,,0,0,0-0
618103,NORIEGA ST,L,,0,0,0-0
9835101,OCEAN AVE,R,,0,0,0-0
9844101,OCEAN AVE,R,,0,0,0-0
9832102,OCEAN AVE,R,,0,0,0-0
9836201,OCEAN AVE,L,,0,0,0-0
9824101,OCEAN AVE,R,,0,0,0-0
9834201,OCEAN AVE,L,,0,0,0-0
9837101,OCEAN AVE,R,,0,0,0-0
9841201,OCEAN AVE,L,,0,0,0-0
9831101,OCEAN AVE,R,,0,0,0-0
9817201,OCEAN AVE,L,,0,0,0-0
9821101,OCEAN AVE,R,,0,0,0-0
9823101,OCEAN AVE,R,,0,0,0-0
9840101,OCEAN AVE,R,,0,0,0-0
9813101,OCEAN AVE,R,,0,0,0-0
9842201,OCEAN AVE,L,,0,0,0-0
9819101,OCEAN AVE,R,,0,0,0-0
9821201,OCEAN AVE,L,,0,0,0-0
9838101,OCEAN AVE,R,,0,0,0-0
9834101,OCEAN AVE,R,,0,0,0-0
9837201,OCEAN AVE,L,,0,0,0-0
9830101,OCEAN AVE,R,,0,0,0-0
9843201,OCEAN AVE,L,,0,0,0-0
9829101,OCEAN AVE,R,,0,0,0-0
9819201,OCEAN AVE,L,,0,0,0-0
9842101,OCEAN AVE,R,,0,0,0-0
9827101,OCEAN AVE,R,,0,0,0-0
9825201,OCEAN AVE,L,,0,0,0-0
9844201,OCEAN AVE,L,,0,0,0-0
9832101,OCEAN AVE,R,,0,0,0-0
9837102,OCEAN AVE,R,,0,0,0-0
9818201,OCEAN AVE,L,,0,0,0-0
9815202,OCEAN AVE,L,,0,0,0-0
9808101,OCEAN AVE,R,,0,0,0-0
9838201,OCEAN AVE,L,,0,0,0-0
9812101,OCEAN AVE,R,,0,0,0-0
9826101,OCEAN AVE,R,,0,0,0-0
9843101,OCEAN AVE,R,,0,0,0-0
9825101,OCEAN AVE,R,,0,0,0-0
9807201,OCEAN AVE,L,,0,0,0-0
9822201,OCEAN AVE,L,,0,0,0-0
9827201,OCEAN AVE,L,,0,0,0-0
9828101,OCEAN AVE,R,,0,0,0-0
9829201,OCEAN AVE,L,,0,0,0-0
9811101,OCEAN AVE,R,,0,0,0-0
9814201,OCEAN AVE,L,,0,0,0-0
9835201,OCEAN AVE,L,,0,0,0-0
9820201,OCEAN AVE,L,,0,0,0-0
9820101,OCEAN AVE,R,,0,0,0-0
9816201,OCEAN AVE,L,,0,0,0-0
9845101,OCEAN AVE,R,,0,0,0-0
9818101,OCEAN AVE,R,,0,0,0-0
9817101,OCEAN AVE,R,,0,0,0-0
9839201,OCEAN AVE,L,,0,0,0-0
9836101,OCEAN AVE,R,,0,0,0-0
9815101,OCEAN AVE,R,,0,0,0-0
9833201,OCEAN AVE,L,,0,0,0-0
9833101,OCEAN AVE,R,,0,0,0-0
9832201,OCEAN AVE,L,,0,0,0-0
9839101,OCEAN AVE,R,,0,0,0-0
9822101,OCEAN AVE,R,,0,0,0-0
9830201,OCEAN AVE,L,,0,0,0-0
9828201,OCEAN AVE,L,,0,0,0-0
9840201,OCEAN AVE,L,,0,0,0-0
9824201,OCEAN AVE,L,,0,0,0-0
9841101,OCEAN AVE,R,,0,0,0-0
9816101,OCEAN AVE,R,,0,0,0-0
9815201,OCEAN AVE,L,,0,0,0-0
9810201,OCEAN AVE,L,,0,0,0-0
9845201,OCEAN AVE,L,,0,0,0-0
9826201,OCEAN AVE,L,,0,0,0-0
9809201,OCEAN AVE,L,,0,0,0-0
9810101,OCEAN AVE,R,,0,0,0-0
9814101,OCEAN AVE,R,,0,0,0-0
9811201,OCEAN AVE,L,,0,0,0-0
9831201,OCEAN AVE,L,,0,0,0-0
9823201,OCEAN AVE,L,,0,0,0-0
9808201,OCEAN AVE,L,,0,0,0-0
9813201,OCEAN AVE,L,,0,0,0-0
9807101,OCEAN AVE,R,,0,0,0-0
9812201,OCEAN AVE,L,,0,0,0-0
9873000,OCEAN AVE,L,,4701,4799,4701-4799
9976000,ORDWAY ST,L,,375,399,375-399
14010000,ORSI CIR,L,,101,199,101-199
10000101,ORTEGA ST,R,,400,562,400-562
10000201,ORTEGA ST,L,,401,499,401-499
10000202,ORTEGA ST,L,,501,599,501-599
10000102,ORTEGA ST,R,,564,698,564-698
10000203,ORTEGA ST,L,,601,699,601-699
9747201,OSHAUGHNESSY BLVD,L,,0,0,0-0
10058000,OTTAWA AVE,R,,0,0,0-0
10080202,PACHECO ST,L,,0,0,0-0
10076000,PACHECO ST,L,,0,0,0-0
10080201,PACHECO ST,L,,0,0,0-0
4920000,PACHECO ST,R,,0,0,0-0
10080101,PACHECO ST,R,,0,0,0-0
10080102,PACHECO ST,R,,0,0,0-0
10081000,PACHECO ST,R,,418,454,418-454
10074101,PACHECO ST,R,,nan,nan,nan-nan
10135000,PACIFIC AVE,L,,1001,1043,1001-1043
10136000,PACIFIC AVE,L,,1045,1045,1045-1045
10137000,PACIFIC AVE,L,,1047,1065,1047-1065
10140000,PACIFIC AVE,L,,1157,1199,1157-1199
10143000,PACIFIC AVE,L,,1319,1399,1319-1399
10144000,PACIFIC AVE,L,,1401,1449,1401-1449
10165000,PACIFIC AVE,R,,3300,3398,3300-3398
10133000,PACIFIC AVE,L,,923,947,923-947
10134000,PACIFIC AVE,L,,949,999,949-999
10216000,PALOU AVE,L,,1001,1025,1001-1025
10305000,PATTON ST,R,,2,98,2-98
10318000,PEABODY ST,R,,100,198,100-198
10349000,PERALTA AVE,R,,600,646,600-646
10524000,PLYMOUTH AVE,R,,0,0,0-0
12892000,PLYMOUTH AVE,L,,0,0,0-0
10525000,PLYMOUTH AVE,L,,1275,1299,1275-1299
10531000,PLYMOUTH AVE,R,,1582,1598,1582-1598
10536000,POINT LOBOS AVE,R,,2,98,2-98
10597000,POPE ST,L,,397,399,397-399
10607000,PORTER ST,R,,2,98,2-98
10618103,PORTOLA DR,R,,0,0,0-0
10611201,PORTOLA DR,L,,0,0,0-0
10618201,PORTOLA DR,L,,0,0,0-0
10618104,PORTOLA DR,R,,0,0,0-0
10619201,PORTOLA DR,L,,0,0,0-0
10618202,PORTOLA DR,L,,0,0,0-0
10613201,PORTOLA DR,L,,0,0,0-0
10620101,PORTOLA DR,R,,0,0,0-0
12904000,PORTOLA DR,L,,0,0,0-0
10613101,PORTOLA DR,R,,0,0,0-0
10617201,PORTOLA DR,L,,0,0,0-0
10618102,PORTOLA DR,R,,0,0,0-0
10616201,PORTOLA DR,L,,0,0,0-0
10617101,PORTOLA DR,R,,0,0,0-0
10620102,PORTOLA DR,R,,0,0,0-0
10620201,PORTOLA DR,L,,0,0,0-0
10622201,PORTOLA DR,L,,0,0,0-0
10611101,PORTOLA DR,R,,0,0,0-0
10614101,PORTOLA DR,R,,0,0,0-0
10612201,PORTOLA DR,L,,0,0,0-0
10622102,PORTOLA DR,R,,0,0,0-0
10619101,PORTOLA DR,R,,0,0,0-0
10612202,PORTOLA DR,L,,0,0,0-0
10614201,PORTOLA DR,L,,0,0,0-0
10617102,PORTOLA DR,R,,0,0,0-0
10615201,PORTOLA DR,L,,0,0,0-0
10621101,PORTOLA DR,R,,0,0,0-0
10622101,PORTOLA DR,R,,0,0,0-0
10618101,PORTOLA DR,R,,0,0,0-0
10612101,PORTOLA DR,R,,0,0,0-0
15106201,PORTOLA DR,L,,1501,1599,1501-1599
15106102,PORTOLA DR,R,,1550,1598,1550-1598
15106103,PORTOLA DR,R,,1600,1698,1600-1698
15106202,PORTOLA DR,L,,1601,1699,1601-1699
10663201,POTRERO AVE,L,,0,0,0-0
10666201,POTRERO AVE,L,,0,0,0-0
10670101,POTRERO AVE,R,,0,0,0-0
10667201,POTRERO AVE,L,,0,0,0-0
10670201,POTRERO AVE,L,,0,0,0-0
10668101,POTRERO AVE,R,,0,0,0-0
10664101,POTRERO AVE,R,,0,0,0-0
10665201,POTRERO AVE,L,,0,0,0-0
10664201,POTRERO AVE,L,,0,0,0-0
10669201,POTRERO AVE,L,,0,0,0-0
10668201,POTRERO AVE,L,,0,0,0-0
10665101,POTRERO AVE,R,,0,0,0-0
10674101,POTRERO AVE,R,,0,0,0-0
10674201,POTRERO AVE,L,,0,0,0-0
10667101,POTRERO AVE,R,,0,0,0-0
10669101,POTRERO AVE,R,,0,0,0-0
10666101,POTRERO AVE,R,,0,0,0-0
10697000,POWELL ST,R,,1750,1798,1750-1798
10718000,POWHATTAN AVE,L,,0,0,0-0
4449000,PRECITA AVE,R,,2,98,2-98
10816101,QUESADA AVE,R,,0,0,0-0
10842000,QUINT ST,L,,2479,2499,2479-2499
10845000,QUINTARA ST,R,,2,98,2-98
10893000,RALSTON ST,R,,10,98,10-98
10908000,RANDALL ST,L,,5,39,5-39
10923000,RANDOLPH ST,L,,801,899,801-899
10970101,REUEL CT,R,,0,0,0-0
11010101,RICHARDSON AVE,R,,0,0,0-0
11010201,RICHARDSON AVE,L,,0,0,0-0
11010202,RICHARDSON AVE,L,,0,0,0-0
19198000,RICHARDSON AVE,L,,201,299,201-299
11039000,RITCH ST,L,,201,299,201-299
11040000,RITCH ST,L,,301,399,301-399
11089000,RIZAL ST,L,,11,51,11-51
11110000,ROCKRIDGE DR,L,,1,5,1-5
11121000,ROLPH ST,R,,272,298,272-298
11131000,ROMAIN ST,L,,101,199,101-199
11146201,ROOSEVELT WAY,L,,0,0,0-0
11148201,ROOSEVELT WAY,L,,0,0,0-0
11148101,ROOSEVELT WAY,R,,0,0,0-0
11164000,ROSIE LEE LN,L,,50,98,50-98
11283000,SAGAMORE ST,R,,286,298,286-298
11285000,SAGAMORE ST,L,,297,299,297-299
11284000,SAGAMORE ST,R,,300,398,300-398
11294201,SAINT FRANCIS BLVD,L,,0,0,0-0
11300101,SAINT FRANCIS BLVD,R,,0,0,0-0
11294101,SAINT FRANCIS BLVD,R,,0,0,0-0
11300201,SAINT FRANCIS BLVD,L,,0,0,0-0
11294202,SAINT FRANCIS BLVD,L,,0,0,0-0
11337000,SAN ANSELMO AVE,R,,186,198,186-198
11338000,SAN ANSELMO AVE,R,,200,210,200-210
11339000,SAN ANSELMO AVE,R,,212,264,212-264
11467101,SAN JOSE AVE,R,,0,0,0-0
11438101,SAN JOSE AVE,R,,0,0,0-0
11467202,SAN JOSE AVE,L,,0,0,0-0
11440101,SAN JOSE AVE,R,,0,0,0-0
11438201,SAN JOSE AVE,L,,0,0,0-0
11458201,SAN JOSE AVE,L,,0,0,0-0
11439106,SAN JOSE AVE,R,,0,0,0-0
11467204,SAN JOSE AVE,L,,0,0,0-0
11468201,SAN JOSE AVE,L,,0,0,0-0
11441201,SAN JOSE AVE,L,,0,0,0-0
11458101,SAN JOSE AVE,R,,0,0,0-0
11438103,SAN JOSE AVE,R,,0,0,0-0
11468101,SAN JOSE AVE,R,,0,0,0-0
11440201,SAN JOSE AVE,L,,0,0,0-0
11441101,SAN JOSE AVE,R,,0,0,0-0
11438102,SAN JOSE AVE,R,,0,0,0-0
11467201,SAN JOSE AVE,L,,0,0,0-0
11436101,SAN JOSE AVE,R,,0,0,0-0
11467203,SAN JOSE AVE,L,,0,0,0-0
11437101,SAN JOSE AVE,R,,0,0,0-0
11439201,SAN JOSE AVE,L,,0,0,0-0
11472000,SAN JOSE AVE,L,,3201,3299,3201-3299
11496101,SAN MARCOS AVE,R,,0,0,0-0
11495101,SAN MARCOS AVE,R,,0,0,0-0
11495201,SAN MARCOS AVE,L,,0,0,0-0
11496201,SAN MARCOS AVE,L,,0,0,0-0
11521101,SANCHEZ ST,R,,0,0,0-0
11588201,SANTA RITA AVE,L,,0,0,0-0
11587000,SANTA RITA AVE,L,,1,49,1-49
11588101,SANTA RITA AVE,L,,51,99,51-99
11676000,SCHWERIN ST,L,,337,375,337-375
5128000,SEACLIFF AVE,R,,0,0,0-0
11729000,SEACLIFF AVE,L,,301,499,301-499
11938000,SKYLINE BLVD,L,,1,99,1-99
11957101,SLOAT BLVD,R,,0,0,0-0
11959103,SLOAT BLVD,R,,0,0,0-0
11958101,SLOAT BLVD,R,,0,0,0-0
11952201,SLOAT BLVD,L,,0,0,0-0
11953201,SLOAT BLVD,L,,0,0,0-0
11956201,SLOAT BLVD,L,,0,0,0-0
11959201,SLOAT BLVD,L,,0,0,0-0
11959105,SLOAT BLVD,R,,0,0,0-0
11959202,SLOAT BLVD,L,,0,0,0-0
11959204,SLOAT BLVD,L,,0,0,0-0
11953101,SLOAT BLVD,R,,0,0,0-0
11954101,SLOAT BLVD,R,,0,0,0-0
11951102,SLOAT BLVD,R,,0,0,0-0
11956103,SLOAT BLVD,R,,0,0,0-0
11954201,SLOAT BLVD,L,,0,0,0-0
11955102,SLOAT BLVD,R,,0,0,0-0
11955201,SLOAT BLVD,L,,0,0,0-0
11953103,SLOAT BLVD,R,,0,0,0-0
11956101,SLOAT BLVD,R,,0,0,0-0
11951201,SLOAT BLVD,L,,0,0,0-0
11955103,SLOAT BLVD,R,,0,0,0-0
11959104,SLOAT BLVD,R,,0,0,0-0
11952102,SLOAT BLVD,R,,0,0,0-0
11959102,SLOAT BLVD,R,,0,0,0-0
11955202,SLOAT BLVD,L,,0,0,0-0
11954202,SLOAT BLVD,L,,0,0,0-0
11954102,SLOAT BLVD,R,,0,0,0-0
11950102,SLOAT BLVD,R,,0,0,0-0
11959101,SLOAT BLVD,R,,0,0,0-0
11953202,SLOAT BLVD,L,,0,0,0-0
11950101,SLOAT BLVD,R,,0,0,0-0
11950103,SLOAT BLVD,R,,0,0,0-0
11955101,SLOAT BLVD,R,,0,0,0-0
11950203,SLOAT BLVD,L,,0,0,0-0
11955203,SLOAT BLVD,L,,0,0,0-0
11950104,SLOAT BLVD,R,,0,0,0-0
11952101,SLOAT BLVD,R,,0,0,0-0
11956104,SLOAT BLVD,R,,0,0,0-0
11954203,SLOAT BLVD,L,,0,0,0-0
11957201,SLOAT BLVD,L,,0,0,0-0
11959203,SLOAT BLVD,L,,0,0,0-0
11953102,SLOAT BLVD,R,,0,0,0-0
11956102,SLOAT BLVD,R,,0,0,0-0
11958201,SLOAT BLVD,L,,0,0,0-0
11950204,SLOAT BLVD,L,,0,0,0-0
12017202,SOUTH VAN NESS AVE,L,,0,0,0-0
12016201,SOUTH VAN NESS AVE,L,,0,0,0-0
12015201,SOUTH VAN NESS AVE,L,,0,0,0-0
12015101,SOUTH VAN NESS AVE,R,,0,0,0-0
12017101,SOUTH VAN NESS AVE,R,,0,0,0-0
12016101,SOUTH VAN NESS AVE,R,,0,0,0-0
12017201,SOUTH VAN NESS AVE,L,,0,0,0-0
12019201,SOUTH VAN NESS AVE,L,,0,0,0-0
12019101,SOUTH VAN NESS AVE,R,,0,0,0-0
12019102,SOUTH VAN NESS AVE,R,,0,0,0-0
12018101,SOUTH VAN NESS AVE,R,,0,0,0-0
12018201,SOUTH VAN NESS AVE,L,,0,0,0-0
12222000,STOCKTON ST,L,,2201,2299,2201-2299
12223000,STOCKTON ST,L,,2301,2399,2301-2399
12203000,STOCKTON ST,R,,700,798,700-798
12199001,STOCKTON ST,R,,nan,nan,nan-nan
12227000,STONECREST DR,L,,0,0,0-0
12232000,STONEMAN ST,L,,1,23,1-23
12233000,STONEMAN ST,L,,25,55,25-55
12245000,STRATFORD DR,L,,377,399,377-399
12251000,SUMNER ST,L,,1,99,1-99
12498000,TERESITA BLVD,L,,1,39,1-39
12582101,THOMAS MELLON DR,R,,0,0,0-0
12582201,THOMAS MELLON DR,L,,0,0,0-0
12666000,TOWNSEND ST,L,,601,699,601-699
12667000,TOWNSEND ST,L,,701,799,701-799
12679000,TREAT AVE,L,,101,141,101-141
12837000,UNION ST,R,,300,350,300-350
13052101,VALENCIA ST,L,,1,99,1-99
13052201,VALENCIA ST,R,,2,98,2-98
13124201,VALLETTA CT,L,,0,0,0-0
13124101,VALLETTA CT,L,,1,99,1-99
13157101,VAN NESS AVE,R,,0,0,0-0
13156201,VAN NESS AVE,L,,0,0,0-0
13151102,VAN NESS AVE,R,,0,0,0-0
13161201,VAN NESS AVE,L,,0,0,0-0
13159101,VAN NESS AVE,R,,0,0,0-0
13146101,VAN NESS AVE,R,,0,0,0-0
13161101,VAN NESS AVE,R,,0,0,0-0
13155101,VAN NESS AVE,R,,0,0,0-0
13149101,VAN NESS AVE,R,,0,0,0-0
13154101,VAN NESS AVE,R,,0,0,0-0
13156102,VAN NESS AVE,R,,0,0,0-0
13148101,VAN NESS AVE,R,,0,0,0-0
13155201,VAN NESS AVE,L,,0,0,0-0
13154202,VAN NESS AVE,L,,0,0,0-0
13165101,VAN NESS AVE,R,,0,0,0-0
13163201,VAN NESS AVE,L,,0,0,0-0
13147101,VAN NESS AVE,R,,0,0,0-0
13156202,VAN NESS AVE,L,,0,0,0-0
13153202,VAN NESS AVE,L,,0,0,0-0
13146201,VAN NESS AVE,L,,0,0,0-0
13154201,VAN NESS AVE,L,,0,0,0-0
13153101,VAN NESS AVE,R,,0,0,0-0
13166201,VAN NESS AVE,L,,0,0,0-0
13149201,VAN NESS AVE,L,,0,0,0-0
13160201,VAN NESS AVE,L,,0,0,0-0
13144101,VAN NESS AVE,R,,0,0,0-0
13145201,VAN NESS AVE,L,,0,0,0-0
13158201,VAN NESS AVE,L,,0,0,0-0
13143101,VAN NESS AVE,R,,0,0,0-0
13152101,VAN NESS AVE,R,,0,0,0-0
13151202,VAN NESS AVE,L,,0,0,0-0
13153201,VAN NESS AVE,L,,0,0,0-0
13150101,VAN NESS AVE,R,,0,0,0-0
13147202,VAN NESS AVE,L,,0,0,0-0
13154102,VAN NESS AVE,R,,0,0,0-0
13152202,VAN NESS AVE,L,,0,0,0-0
13155202,VAN NESS AVE,L,,0,0,0-0
13149102,VAN NESS AVE,R,,0,0,0-0
13145101,VAN NESS AVE,R,,0,0,0-0
13162201,VAN NESS AVE,L,,0,0,0-0
13150202,VAN NESS AVE,L,,0,0,0-0
13163101,VAN NESS AVE,R,,0,0,0-0
13143102,VAN NESS AVE,R,,0,0,0-0
13173101,VAN NESS AVE,R,,0,0,0-0
13152201,VAN NESS AVE,L,,0,0,0-0
13158101,VAN NESS AVE,R,,0,0,0-0
13151101,VAN NESS AVE,R,,0,0,0-0
13150102,VAN NESS AVE,R,,0,0,0-0
13143201,VAN NESS AVE,L,,0,0,0-0
13156101,VAN NESS AVE,R,,0,0,0-0
13145202,VAN NESS AVE,L,,0,0,0-0
13148201,VAN NESS AVE,L,,0,0,0-0
13143103,VAN NESS AVE,R,,0,0,0-0
13157201,VAN NESS AVE,L,,0,0,0-0
13159201,VAN NESS AVE,L,,0,0,0-0
13150201,VAN NESS AVE,L,,0,0,0-0
13152102,VAN NESS AVE,R,,0,0,0-0
13174201,VAN NESS AVE,L,,0,0,0-0
13144201,VAN NESS AVE,L,,0,0,0-0
13173201,VAN NESS AVE,L,,0,0,0-0
13147201,VAN NESS AVE,L,,0,0,0-0
13151201,VAN NESS AVE,L,,0,0,0-0
13160101,VAN NESS AVE,R,,0,0,0-0
13148202,VAN NESS AVE,L,,0,0,0-0
13169101,VAN NESS AVE,R,,0,0,0-0
13155102,VAN NESS AVE,R,,0,0,0-0
13172201,VAN NESS AVE,L,,0,0,0-0
13162101,VAN NESS AVE,R,,0,0,0-0
13165201,VAN NESS AVE,L,,0,0,0-0
13169201,VAN NESS AVE,L,,0,0,0-0
13174101,VAN NESS AVE,R,,0,0,0-0
13184000,VASQUEZ AVE,L,,101,149,101-149
13185000,VASQUEZ AVE,L,,151,199,151-199
13216001,VERMONT ST,R,,800,840,800-840
13216000,VERMONT ST,L,,nan,nan,nan-nan
13294101,VIDAL DR,R,,0,0,0-0
13291101,VIDAL DR,R,,0,0,0-0
13293101,VIDAL DR,R,,0,0,0-0
13005000,VIDAL DR,L,,0,0,0-0
13292101,VIDAL DR,R,,0,0,0-0
13354000,WALLACE AVE,L,,1393,1399,1393-1399
13355000,WALLACE AVE,L,,1401,1499,1401-1499
13455000,WATERLOO ST,R,,2,38,2-38
13456000,WATERLOO ST,R,,40,98,40-98
13463000,WATT AVE,R,,62,98,62-98
13540101,WEBSTER ST,R,,0,0,0-0
13540201,WEBSTER ST,L,,0,0,0-0
13536101,WEBSTER ST,R,,0,0,0-0
13539201,WEBSTER ST,L,,0,0,0-0
13530101,WEBSTER ST,R,,0,0,0-0
13538101,WEBSTER ST,R,,0,0,0-0
13533201,WEBSTER ST,L,,0,0,0-0
13532201,WEBSTER ST,L,,0,0,0-0
13539101,WEBSTER ST,R,,0,0,0-0
13534101,WEBSTER ST,R,,0,0,0-0
13537101,WEBSTER ST,R,,0,0,0-0
13530201,WEBSTER ST,L,,0,0,0-0
13534201,WEBSTER ST,L,,0,0,0-0
13576000,WEST POINT RD,L,,nan,nan,nan-nan
13576001,WEST POINT RD,R,,nan,nan,nan-nan
13579101,WEST PORTAL AVE,R,,0,0,0-0
13579201,WEST PORTAL AVE,L,,0,0,0-0
13578101,WEST PORTAL AVE,R,,0,0,0-0
13580101,WEST PORTAL AVE,R,,0,0,0-0
13578201,WEST PORTAL AVE,L,,0,0,0-0
13577201,WEST PORTAL AVE,L,,0,0,0-0
13580201,WEST PORTAL AVE,L,,0,0,0-0
13577101,WEST PORTAL AVE,R,,0,0,0-0
13656000,WILLIAMS AVE,L,,161,189,161-189
13675201,WINDING WAY,L,,0,0,0-0
13686201,WINSTON DR,L,,0,0,0-0
13685201,WINSTON DR,L,,0,0,0-0
13686101,WINSTON DR,R,,0,0,0-0
13685101,WINSTON DR,R,,0,0,0-0
13692000,WISCONSIN ST,L,,1,99,1-99
13714201,WOODSIDE AVE,L,,0,0,0-0
13717201,WOODSIDE AVE,L,,0,0,0-0
13713201,WOODSIDE AVE,L,,0,0,0-0
13716101,WOODSIDE AVE,R,,0,0,0-0
13717101,WOODSIDE AVE,R,,0,0,0-0
13716201,WOODSIDE AVE,L,,0,0,0-0
13715101,WOODSIDE AVE,R,,0,0,0-0
13714101,WOODSIDE AVE,R,,0,0,0-0
13713101,WOODSIDE AVE,R,,0,0,0-0
13712101,WOODSIDE AVE,R,,0,0,0-0
13715201,WOODSIDE AVE,L,,0,0,0-0
13760000,YORBA ST,R,,2550,2598,2550-2598
13764000,YORBA ST,L,,2869,2933,2869-2933
13779000,YOSEMITE AVE,R,,1300,1398,1300-1398
